{"type":"FeatureCollection","features":[{"type":"Feature","id":1,"geometry":{"type":"Point","coordinates":[47.094400000000064,-18.316699999999969]},"properties":{"OBJECTID":1,"Date":"2018-12-06","Series":1,"Locality":"Ambohitromby","Fleas":13,"S__fonquerniei_Count":10,"X__cheopis_Count":3,"Rodents":34,"R__rattus_Count":31,"Fleas_on_R__rattus":13,"Flea_Index__Rodents_":0.38240000000000002,"Flea_Index__R__rattus_":0.4194,"S__fonquerniei_Index__R__rattus_":0.3226,"X__cheopis_Index__R__rattus_":0.096799999999999997,"Seropositive_Count":1,"Source":"Rasoamalala et al. 2024 / Parany et al. 2025 - IPM Ankazobe longitudinal surveillance (data_plague_madagascar.xlsx)","Longitude":47.0944,"Latitude":-18.316700000000001}},{"type":"Feature","id":2,"geometry":{"type":"Point","coordinates":[47.094400000000064,-18.316699999999969]},"properties":{"OBJECTID":2,"Date":"2018-12-07","Series":1,"Locality":"Ambohitromby","Fleas":32,"S__fonquerniei_Count":30,"X__cheopis_Count":2,"Rodents":23,"R__rattus_Count":22,"Fleas_on_R__rattus":32,"Flea_Index__Rodents_":1.3913,"Flea_Index__R__rattus_":1.4544999999999999,"S__fonquerniei_Index__R__rattus_":1.3635999999999999,"X__cheopis_Index__R__rattus_":0.090899999999999995,"Seropositive_Count":0,"Source":"Rasoamalala et al. 2024 / Parany et al. 2025 - IPM Ankazobe longitudinal surveillance (data_plague_madagascar.xlsx)","Longitude":47.0944,"Latitude":-18.316700000000001}},{"type":"Feature","id":3,"geometry":{"type":"Point","coordinates":[47.094400000000064,-18.316699999999969]},"properties":{"OBJECTID":3,"Date":"2018-12-08","Series":1,"Locality":"Ambohitromby","Fleas":15,"S__fonquerniei_Count":12,"X__cheopis_Count":3,"Rodents":19,"R__rattus_Count":16,"Fleas_on_R__rattus":15,"Flea_Index__Rodents_":0.78949999999999998,"Flea_Index__R__rattus_":0.9375,"S__fonquerniei_Index__R__rattus_":0.75,"X__cheopis_Index__R__rattus_":0.1875,"Seropositive_Count":1,"Source":"Rasoamalala et al. 2024 / Parany et al. 2025 - IPM Ankazobe longitudinal surveillance (data_plague_madagascar.xlsx)","Longitude":47.0944,"Latitude":-18.316700000000001}},{"type":"Feature","id":4,"geometry":{"type":"Point","coordinates":[47.120000000000061,-18.339999999999975]},"properties":{"OBJECTID":4,"Date":"2018-12-13","Series":1,"Locality":"Antakavana","Fleas":20,"S__fonquerniei_Count":17,"X__cheopis_Count":3,"Rodents":18,"R__rattus_Count":15,"Fleas_on_R__rattus":20,"Flea_Index__Rodents_":1.1111,"Flea_Index__R__rattus_":1.3332999999999999,"S__fonquerniei_Index__R__rattus_":1.1333,"X__cheopis_Index__R__rattus_":0.20000000000000001,"Seropositive_Count":0,"Source":"Rasoamalala et al. 2024 / Parany et al. 2025 - IPM Ankazobe longitudinal surveillance (data_plague_madagascar.xlsx)","Longitude":47.119999999999997,"Latitude":-18.34}},{"type":"Feature","id":5,"geometry":{"type":"Point","coordinates":[47.120000000000061,-18.339999999999975]},"properties":{"OBJECTID":5,"Date":"2018-12-14","Series":1,"Locality":"Antakavana","Fleas":13,"S__fonquerniei_Count":10,"X__cheopis_Count":3,"Rodents":8,"R__rattus_Count":7,"Fleas_on_R__rattus":13,"Flea_Index__Rodents_":1.625,"Flea_Index__R__rattus_":1.8571,"S__fonquerniei_Index__R__rattus_":1.4286000000000001,"X__cheopis_Index__R__rattus_":0.42859999999999998,"Seropositive_Count":0,"Source":"Rasoamalala et al. 2024 / Parany et al. 2025 - IPM Ankazobe longitudinal surveillance (data_plague_madagascar.xlsx)","Longitude":47.119999999999997,"Latitude":-18.34}},{"type":"Feature","id":6,"geometry":{"type":"Point","coordinates":[47.120000000000061,-18.339999999999975]},"properties":{"OBJECTID":6,"Date":"2018-12-15","Series":1,"Locality":"Antakavana","Fleas":7,"S__fonquerniei_Count":7,"X__cheopis_Count":0,"Rodents":12,"R__rattus_Count":11,"Fleas_on_R__rattus":7,"Flea_Index__Rodents_":0.58330000000000004,"Flea_Index__R__rattus_":0.63639999999999997,"S__fonquerniei_Index__R__rattus_":0.63639999999999997,"X__cheopis_Index__R__rattus_":0,"Seropositive_Count":0,"Source":"Rasoamalala et al. 2024 / Parany et al. 2025 - IPM Ankazobe longitudinal surveillance (data_plague_madagascar.xlsx)","Longitude":47.119999999999997,"Latitude":-18.34}},{"type":"Feature","id":7,"geometry":{"type":"Point","coordinates":[47.080000000000041,-18.299999999999955]},"properties":{"OBJECTID":7,"Date":"2018-12-19","Series":1,"Locality":"Kiangara","Fleas":47,"S__fonquerniei_Count":42,"X__cheopis_Count":5,"Rodents":17,"R__rattus_Count":15,"Fleas_on_R__rattus":47,"Flea_Index__Rodents_":2.7646999999999999,"Flea_Index__R__rattus_":3.1333000000000002,"S__fonquerniei_Index__R__rattus_":2.7999999999999998,"X__cheopis_Index__R__rattus_":0.33329999999999999,"Seropositive_Count":0,"Source":"Rasoamalala et al. 2024 / Parany et al. 2025 - IPM Ankazobe longitudinal surveillance (data_plague_madagascar.xlsx)","Longitude":47.079999999999998,"Latitude":-18.300000000000001}},{"type":"Feature","id":8,"geometry":{"type":"Point","coordinates":[47.080000000000041,-18.299999999999955]},"properties":{"OBJECTID":8,"Date":"2018-12-20","Series":1,"Locality":"Kiangara","Fleas":25,"S__fonquerniei_Count":21,"X__cheopis_Count":4,"Rodents":20,"R__rattus_Count":16,"Fleas_on_R__rattus":24,"Flea_Index__Rodents_":1.25,"Flea_Index__R__rattus_":1.5,"S__fonquerniei_Index__R__rattus_":1.3125,"X__cheopis_Index__R__rattus_":0.25,"Seropositive_Count":0,"Source":"Rasoamalala et al. 2024 / Parany et al. 2025 - IPM Ankazobe longitudinal surveillance (data_plague_madagascar.xlsx)","Longitude":47.079999999999998,"Latitude":-18.300000000000001}},{"type":"Feature","id":9,"geometry":{"type":"Point","coordinates":[47.080000000000041,-18.299999999999955]},"properties":{"OBJECTID":9,"Date":"2018-12-21","Series":1,"Locality":"Kiangara","Fleas":7,"S__fonquerniei_Count":0,"X__cheopis_Count":7,"Rodents":9,"R__rattus_Count":5,"Fleas_on_R__rattus":7,"Flea_Index__Rodents_":0.77780000000000005,"Flea_Index__R__rattus_":1.3999999999999999,"S__fonquerniei_Index__R__rattus_":0,"X__cheopis_Index__R__rattus_":1.3999999999999999,"Seropositive_Count":0,"Source":"Rasoamalala et al. 2024 / Parany et al. 2025 - IPM Ankazobe longitudinal surveillance (data_plague_madagascar.xlsx)","Longitude":47.079999999999998,"Latitude":-18.300000000000001}},{"type":"Feature","id":10,"geometry":{"type":"Point","coordinates":[47.11000000000007,-18.289999999999964]},"properties":{"OBJECTID":10,"Date":"2019-01-25","Series":1,"Locality":"Ambolotarakely","Fleas":8,"S__fonquerniei_Count":7,"X__cheopis_Count":1,"Rodents":35,"R__rattus_Count":29,"Fleas_on_R__rattus":8,"Flea_Index__Rodents_":0.2286,"Flea_Index__R__rattus_":0.27589999999999998,"S__fonquerniei_Index__R__rattus_":0.2414,"X__cheopis_Index__R__rattus_":0.034500000000000003,"Seropositive_Count":0,"Source":"Rasoamalala et al. 2024 / Parany et al. 2025 - IPM Ankazobe longitudinal surveillance (data_plague_madagascar.xlsx)","Longitude":47.109999999999999,"Latitude":-18.289999999999999}},{"type":"Feature","id":11,"geometry":{"type":"Point","coordinates":[47.11000000000007,-18.289999999999964]},"properties":{"OBJECTID":11,"Date":"2019-01-26","Series":1,"Locality":"Ambolotarakely","Fleas":12,"S__fonquerniei_Count":3,"X__cheopis_Count":9,"Rodents":16,"R__rattus_Count":11,"Fleas_on_R__rattus":12,"Flea_Index__Rodents_":0.75,"Flea_Index__R__rattus_":1.0909,"S__fonquerniei_Index__R__rattus_":0.2727,"X__cheopis_Index__R__rattus_":0.81820000000000004,"Seropositive_Count":0,"Source":"Rasoamalala et al. 2024 / Parany et al. 2025 - IPM Ankazobe longitudinal surveillance (data_plague_madagascar.xlsx)","Longitude":47.109999999999999,"Latitude":-18.289999999999999}},{"type":"Feature","id":12,"geometry":{"type":"Point","coordinates":[47.11000000000007,-18.289999999999964]},"properties":{"OBJECTID":12,"Date":"2019-01-27","Series":1,"Locality":"Ambolotarakely","Fleas":14,"S__fonquerniei_Count":2,"X__cheopis_Count":12,"Rodents":21,"R__rattus_Count":13,"Fleas_on_R__rattus":13,"Flea_Index__Rodents_":0.66669999999999996,"Flea_Index__R__rattus_":1,"S__fonquerniei_Index__R__rattus_":0.15379999999999999,"X__cheopis_Index__R__rattus_":0.92310000000000003,"Seropositive_Count":0,"Source":"Rasoamalala et al. 2024 / Parany et al. 2025 - IPM Ankazobe longitudinal surveillance (data_plague_madagascar.xlsx)","Longitude":47.109999999999999,"Latitude":-18.289999999999999}},{"type":"Feature","id":13,"geometry":{"type":"Point","coordinates":[47.105000000000075,-18.354999999999961]},"properties":{"OBJECTID":13,"Date":"2019-01-30","Series":1,"Locality":"Talata Angavo","Fleas":104,"S__fonquerniei_Count":8,"X__cheopis_Count":96,"Rodents":24,"R__rattus_Count":21,"Fleas_on_R__rattus":104,"Flea_Index__Rodents_":4.3333000000000004,"Flea_Index__R__rattus_":4.9523999999999999,"S__fonquerniei_Index__R__rattus_":0.38100000000000001,"X__cheopis_Index__R__rattus_":4.5713999999999997,"Seropositive_Count":0,"Source":"Rasoamalala et al. 2024 / Parany et al. 2025 - IPM Ankazobe longitudinal surveillance (data_plague_madagascar.xlsx)","Longitude":47.104999999999997,"Latitude":-18.355}},{"type":"Feature","id":14,"geometry":{"type":"Point","coordinates":[47.105000000000075,-18.354999999999961]},"properties":{"OBJECTID":14,"Date":"2019-01-31","Series":1,"Locality":"Talata Angavo","Fleas":91,"S__fonquerniei_Count":1,"X__cheopis_Count":90,"Rodents":25,"R__rattus_Count":21,"Fleas_on_R__rattus":90,"Flea_Index__Rodents_":3.6400000000000001,"Flea_Index__R__rattus_":4.2857000000000003,"S__fonquerniei_Index__R__rattus_":0.047600000000000003,"X__cheopis_Index__R__rattus_":4.2857000000000003,"Seropositive_Count":0,"Source":"Rasoamalala et al. 2024 / Parany et al. 2025 - IPM Ankazobe longitudinal surveillance (data_plague_madagascar.xlsx)","Longitude":47.104999999999997,"Latitude":-18.355}},{"type":"Feature","id":15,"geometry":{"type":"Point","coordinates":[47.105000000000075,-18.354999999999961]},"properties":{"OBJECTID":15,"Date":"2019-02-01","Series":1,"Locality":"Talata Angavo","Fleas":74,"S__fonquerniei_Count":4,"X__cheopis_Count":70,"Rodents":14,"R__rattus_Count":13,"Fleas_on_R__rattus":74,"Flea_Index__Rodents_":5.2857000000000003,"Flea_Index__R__rattus_":5.6923000000000004,"S__fonquerniei_Index__R__rattus_":0.30769999999999997,"X__cheopis_Index__R__rattus_":5.3845999999999998,"Seropositive_Count":0,"Source":"Rasoamalala et al. 2024 / Parany et al. 2025 - IPM Ankazobe longitudinal surveillance (data_plague_madagascar.xlsx)","Longitude":47.104999999999997,"Latitude":-18.355}},{"type":"Feature","id":16,"geometry":{"type":"Point","coordinates":[47.116700000000037,-18.316699999999969]},"properties":{"OBJECTID":16,"Date":"2019-02-04","Series":1,"Locality":"Ankazobe","Fleas":19,"S__fonquerniei_Count":19,"X__cheopis_Count":0,"Rodents":27,"R__rattus_Count":24,"Fleas_on_R__rattus":19,"Flea_Index__Rodents_":0.70369999999999999,"Flea_Index__R__rattus_":0.79169999999999996,"S__fonquerniei_Index__R__rattus_":0.79169999999999996,"X__cheopis_Index__R__rattus_":0,"Seropositive_Count":0,"Source":"Rasoamalala et al. 2024 / Parany et al. 2025 - IPM Ankazobe longitudinal surveillance (data_plague_madagascar.xlsx)","Longitude":47.116700000000002,"Latitude":-18.316700000000001}},{"type":"Feature","id":17,"geometry":{"type":"Point","coordinates":[47.116700000000037,-18.316699999999969]},"properties":{"OBJECTID":17,"Date":"2019-02-05","Series":1,"Locality":"Ankazobe","Fleas":15,"S__fonquerniei_Count":13,"X__cheopis_Count":2,"Rodents":12,"R__rattus_Count":11,"Fleas_on_R__rattus":15,"Flea_Index__Rodents_":1.25,"Flea_Index__R__rattus_":1.3635999999999999,"S__fonquerniei_Index__R__rattus_":1.1818,"X__cheopis_Index__R__rattus_":0.18179999999999999,"Seropositive_Count":0,"Source":"Rasoamalala et al. 2024 / Parany et al. 2025 - IPM Ankazobe longitudinal surveillance (data_plague_madagascar.xlsx)","Longitude":47.116700000000002,"Latitude":-18.316700000000001}},{"type":"Feature","id":18,"geometry":{"type":"Point","coordinates":[47.116700000000037,-18.316699999999969]},"properties":{"OBJECTID":18,"Date":"2019-02-06","Series":1,"Locality":"Ankazobe","Fleas":11,"S__fonquerniei_Count":9,"X__cheopis_Count":2,"Rodents":8,"R__rattus_Count":8,"Fleas_on_R__rattus":11,"Flea_Index__Rodents_":1.375,"Flea_Index__R__rattus_":1.375,"S__fonquerniei_Index__R__rattus_":1.125,"X__cheopis_Index__R__rattus_":0.25,"Seropositive_Count":0,"Source":"Rasoamalala et al. 2024 / Parany et al. 2025 - IPM Ankazobe longitudinal surveillance (data_plague_madagascar.xlsx)","Longitude":47.116700000000002,"Latitude":-18.316700000000001}},{"type":"Feature","id":19,"geometry":{"type":"Point","coordinates":[47.094400000000064,-18.316699999999969]},"properties":{"OBJECTID":19,"Date":"2019-03-06","Series":2,"Locality":"Ambohitromby","Fleas":15,"S__fonquerniei_Count":12,"X__cheopis_Count":3,"Rodents":32,"R__rattus_Count":30,"Fleas_on_R__rattus":15,"Flea_Index__Rodents_":0.46879999999999999,"Flea_Index__R__rattus_":0.5,"S__fonquerniei_Index__R__rattus_":0.40000000000000002,"X__cheopis_Index__R__rattus_":0.10000000000000001,"Seropositive_Count":0,"Source":"Rasoamalala et al. 2024 / Parany et al. 2025 - IPM Ankazobe longitudinal surveillance (data_plague_madagascar.xlsx)","Longitude":47.0944,"Latitude":-18.316700000000001}},{"type":"Feature","id":20,"geometry":{"type":"Point","coordinates":[47.094400000000064,-18.316699999999969]},"properties":{"OBJECTID":20,"Date":"2019-03-07","Series":2,"Locality":"Ambohitromby","Fleas":0,"S__fonquerniei_Count":0,"X__cheopis_Count":0,"Rodents":13,"R__rattus_Count":12,"Fleas_on_R__rattus":0,"Flea_Index__Rodents_":0,"Flea_Index__R__rattus_":0,"S__fonquerniei_Index__R__rattus_":0,"X__cheopis_Index__R__rattus_":0,"Seropositive_Count":0,"Source":"Rasoamalala et al. 2024 / Parany et al. 2025 - IPM Ankazobe longitudinal surveillance (data_plague_madagascar.xlsx)","Longitude":47.0944,"Latitude":-18.316700000000001}},{"type":"Feature","id":21,"geometry":{"type":"Point","coordinates":[47.094400000000064,-18.316699999999969]},"properties":{"OBJECTID":21,"Date":"2019-03-08","Series":2,"Locality":"Ambohitromby","Fleas":27,"S__fonquerniei_Count":6,"X__cheopis_Count":21,"Rodents":16,"R__rattus_Count":16,"Fleas_on_R__rattus":27,"Flea_Index__Rodents_":1.6875,"Flea_Index__R__rattus_":1.6875,"S__fonquerniei_Index__R__rattus_":0.375,"X__cheopis_Index__R__rattus_":1.3125,"Seropositive_Count":0,"Source":"Rasoamalala et al. 2024 / Parany et al. 2025 - IPM Ankazobe longitudinal surveillance (data_plague_madagascar.xlsx)","Longitude":47.0944,"Latitude":-18.316700000000001}},{"type":"Feature","id":22,"geometry":{"type":"Point","coordinates":[47.120000000000061,-18.339999999999975]},"properties":{"OBJECTID":22,"Date":"2019-03-12","Series":2,"Locality":"Antakavana","Fleas":22,"S__fonquerniei_Count":2,"X__cheopis_Count":20,"Rodents":28,"R__rattus_Count":27,"Fleas_on_R__rattus":22,"Flea_Index__Rodents_":0.78569999999999995,"Flea_Index__R__rattus_":0.81479999999999997,"S__fonquerniei_Index__R__rattus_":0.074099999999999999,"X__cheopis_Index__R__rattus_":0.74070000000000003,"Seropositive_Count":0,"Source":"Rasoamalala et al. 2024 / Parany et al. 2025 - IPM Ankazobe longitudinal surveillance (data_plague_madagascar.xlsx)","Longitude":47.119999999999997,"Latitude":-18.34}},{"type":"Feature","id":23,"geometry":{"type":"Point","coordinates":[47.120000000000061,-18.339999999999975]},"properties":{"OBJECTID":23,"Date":"2019-03-13","Series":2,"Locality":"Antakavana","Fleas":31,"S__fonquerniei_Count":3,"X__cheopis_Count":28,"Rodents":28,"R__rattus_Count":25,"Fleas_on_R__rattus":31,"Flea_Index__Rodents_":1.1071,"Flea_Index__R__rattus_":1.24,"S__fonquerniei_Index__R__rattus_":0.12,"X__cheopis_Index__R__rattus_":1.1200000000000001,"Seropositive_Count":0,"Source":"Rasoamalala et al. 2024 / Parany et al. 2025 - IPM Ankazobe longitudinal surveillance (data_plague_madagascar.xlsx)","Longitude":47.119999999999997,"Latitude":-18.34}},{"type":"Feature","id":24,"geometry":{"type":"Point","coordinates":[47.120000000000061,-18.339999999999975]},"properties":{"OBJECTID":24,"Date":"2019-03-14","Series":2,"Locality":"Antakavana","Fleas":19,"S__fonquerniei_Count":3,"X__cheopis_Count":16,"Rodents":20,"R__rattus_Count":16,"Fleas_on_R__rattus":19,"Flea_Index__Rodents_":0.94999999999999996,"Flea_Index__R__rattus_":1.1875,"S__fonquerniei_Index__R__rattus_":0.1875,"X__cheopis_Index__R__rattus_":1,"Seropositive_Count":0,"Source":"Rasoamalala et al. 2024 / Parany et al. 2025 - IPM Ankazobe longitudinal surveillance (data_plague_madagascar.xlsx)","Longitude":47.119999999999997,"Latitude":-18.34}},{"type":"Feature","id":25,"geometry":{"type":"Point","coordinates":[47.080000000000041,-18.299999999999955]},"properties":{"OBJECTID":25,"Date":"2019-03-19","Series":2,"Locality":"Kiangara","Fleas":6,"S__fonquerniei_Count":5,"X__cheopis_Count":1,"Rodents":22,"R__rattus_Count":19,"Fleas_on_R__rattus":6,"Flea_Index__Rodents_":0.2727,"Flea_Index__R__rattus_":0.31580000000000003,"S__fonquerniei_Index__R__rattus_":0.26319999999999999,"X__cheopis_Index__R__rattus_":0.052600000000000001,"Seropositive_Count":0,"Source":"Rasoamalala et al. 2024 / Parany et al. 2025 - IPM Ankazobe longitudinal surveillance (data_plague_madagascar.xlsx)","Longitude":47.079999999999998,"Latitude":-18.300000000000001}},{"type":"Feature","id":26,"geometry":{"type":"Point","coordinates":[47.080000000000041,-18.299999999999955]},"properties":{"OBJECTID":26,"Date":"2019-03-20","Series":2,"Locality":"Kiangara","Fleas":6,"S__fonquerniei_Count":6,"X__cheopis_Count":0,"Rodents":16,"R__rattus_Count":14,"Fleas_on_R__rattus":5,"Flea_Index__Rodents_":0.375,"Flea_Index__R__rattus_":0.35709999999999997,"S__fonquerniei_Index__R__rattus_":0.42859999999999998,"X__cheopis_Index__R__rattus_":0,"Seropositive_Count":0,"Source":"Rasoamalala et al. 2024 / Parany et al. 2025 - IPM Ankazobe longitudinal surveillance (data_plague_madagascar.xlsx)","Longitude":47.079999999999998,"Latitude":-18.300000000000001}},{"type":"Feature","id":27,"geometry":{"type":"Point","coordinates":[47.080000000000041,-18.299999999999955]},"properties":{"OBJECTID":27,"Date":"2019-03-21","Series":2,"Locality":"Kiangara","Fleas":2,"S__fonquerniei_Count":2,"X__cheopis_Count":0,"Rodents":6,"R__rattus_Count":4,"Fleas_on_R__rattus":2,"Flea_Index__Rodents_":0.33329999999999999,"Flea_Index__R__rattus_":0.5,"S__fonquerniei_Index__R__rattus_":0.5,"X__cheopis_Index__R__rattus_":0,"Seropositive_Count":0,"Source":"Rasoamalala et al. 2024 / Parany et al. 2025 - IPM Ankazobe longitudinal surveillance (data_plague_madagascar.xlsx)","Longitude":47.079999999999998,"Latitude":-18.300000000000001}},{"type":"Feature","id":28,"geometry":{"type":"Point","coordinates":[47.11000000000007,-18.289999999999964]},"properties":{"OBJECTID":28,"Date":"2019-04-25","Series":2,"Locality":"Ambolotarakely","Fleas":22,"S__fonquerniei_Count":0,"X__cheopis_Count":22,"Rodents":35,"R__rattus_Count":32,"Fleas_on_R__rattus":20,"Flea_Index__Rodents_":0.62860000000000005,"Flea_Index__R__rattus_":0.625,"S__fonquerniei_Index__R__rattus_":0,"X__cheopis_Index__R__rattus_":0.6875,"Seropositive_Count":0,"Source":"Rasoamalala et al. 2024 / Parany et al. 2025 - IPM Ankazobe longitudinal surveillance (data_plague_madagascar.xlsx)","Longitude":47.109999999999999,"Latitude":-18.289999999999999}},{"type":"Feature","id":29,"geometry":{"type":"Point","coordinates":[47.11000000000007,-18.289999999999964]},"properties":{"OBJECTID":29,"Date":"2019-04-26","Series":2,"Locality":"Ambolotarakely","Fleas":46,"S__fonquerniei_Count":0,"X__cheopis_Count":46,"Rodents":27,"R__rattus_Count":23,"Fleas_on_R__rattus":46,"Flea_Index__Rodents_":1.7037,"Flea_Index__R__rattus_":2,"S__fonquerniei_Index__R__rattus_":0,"X__cheopis_Index__R__rattus_":2,"Seropositive_Count":0,"Source":"Rasoamalala et al. 2024 / Parany et al. 2025 - IPM Ankazobe longitudinal surveillance (data_plague_madagascar.xlsx)","Longitude":47.109999999999999,"Latitude":-18.289999999999999}},{"type":"Feature","id":30,"geometry":{"type":"Point","coordinates":[47.11000000000007,-18.289999999999964]},"properties":{"OBJECTID":30,"Date":"2019-04-27","Series":2,"Locality":"Ambolotarakely","Fleas":14,"S__fonquerniei_Count":1,"X__cheopis_Count":13,"Rodents":31,"R__rattus_Count":25,"Fleas_on_R__rattus":14,"Flea_Index__Rodents_":0.4516,"Flea_Index__R__rattus_":0.56000000000000005,"S__fonquerniei_Index__R__rattus_":0.040000000000000001,"X__cheopis_Index__R__rattus_":0.52000000000000002,"Seropositive_Count":0,"Source":"Rasoamalala et al. 2024 / Parany et al. 2025 - IPM Ankazobe longitudinal surveillance (data_plague_madagascar.xlsx)","Longitude":47.109999999999999,"Latitude":-18.289999999999999}},{"type":"Feature","id":31,"geometry":{"type":"Point","coordinates":[47.105000000000075,-18.354999999999961]},"properties":{"OBJECTID":31,"Date":"2019-04-30","Series":2,"Locality":"Talata Angavo","Fleas":63,"S__fonquerniei_Count":2,"X__cheopis_Count":61,"Rodents":34,"R__rattus_Count":31,"Fleas_on_R__rattus":63,"Flea_Index__Rodents_":1.8529,"Flea_Index__R__rattus_":2.0323000000000002,"S__fonquerniei_Index__R__rattus_":0.064500000000000002,"X__cheopis_Index__R__rattus_":1.9677,"Seropositive_Count":0,"Source":"Rasoamalala et al. 2024 / Parany et al. 2025 - IPM Ankazobe longitudinal surveillance (data_plague_madagascar.xlsx)","Longitude":47.104999999999997,"Latitude":-18.355}},{"type":"Feature","id":32,"geometry":{"type":"Point","coordinates":[47.105000000000075,-18.354999999999961]},"properties":{"OBJECTID":32,"Date":"2019-05-01","Series":2,"Locality":"Talata Angavo","Fleas":18,"S__fonquerniei_Count":0,"X__cheopis_Count":18,"Rodents":29,"R__rattus_Count":27,"Fleas_on_R__rattus":18,"Flea_Index__Rodents_":0.62070000000000003,"Flea_Index__R__rattus_":0.66669999999999996,"S__fonquerniei_Index__R__rattus_":0,"X__cheopis_Index__R__rattus_":0.66669999999999996,"Seropositive_Count":0,"Source":"Rasoamalala et al. 2024 / Parany et al. 2025 - IPM Ankazobe longitudinal surveillance (data_plague_madagascar.xlsx)","Longitude":47.104999999999997,"Latitude":-18.355}},{"type":"Feature","id":33,"geometry":{"type":"Point","coordinates":[47.105000000000075,-18.354999999999961]},"properties":{"OBJECTID":33,"Date":"2019-05-02","Series":2,"Locality":"Talata Angavo","Fleas":20,"S__fonquerniei_Count":0,"X__cheopis_Count":20,"Rodents":18,"R__rattus_Count":18,"Fleas_on_R__rattus":20,"Flea_Index__Rodents_":1.1111,"Flea_Index__R__rattus_":1.1111,"S__fonquerniei_Index__R__rattus_":0,"X__cheopis_Index__R__rattus_":1.1111,"Seropositive_Count":0,"Source":"Rasoamalala et al. 2024 / Parany et al. 2025 - IPM Ankazobe longitudinal surveillance (data_plague_madagascar.xlsx)","Longitude":47.104999999999997,"Latitude":-18.355}},{"type":"Feature","id":34,"geometry":{"type":"Point","coordinates":[47.116700000000037,-18.316699999999969]},"properties":{"OBJECTID":34,"Date":"2019-05-03","Series":2,"Locality":"Ankazobe","Fleas":1,"S__fonquerniei_Count":1,"X__cheopis_Count":0,"Rodents":24,"R__rattus_Count":23,"Fleas_on_R__rattus":1,"Flea_Index__Rodents_":0.041700000000000001,"Flea_Index__R__rattus_":0.043499999999999997,"S__fonquerniei_Index__R__rattus_":0.043499999999999997,"X__cheopis_Index__R__rattus_":0,"Seropositive_Count":0,"Source":"Rasoamalala et al. 2024 / Parany et al. 2025 - IPM Ankazobe longitudinal surveillance (data_plague_madagascar.xlsx)","Longitude":47.116700000000002,"Latitude":-18.316700000000001}},{"type":"Feature","id":35,"geometry":{"type":"Point","coordinates":[47.116700000000037,-18.316699999999969]},"properties":{"OBJECTID":35,"Date":"2019-05-04","Series":2,"Locality":"Ankazobe","Fleas":68,"S__fonquerniei_Count":5,"X__cheopis_Count":63,"Rodents":30,"R__rattus_Count":30,"Fleas_on_R__rattus":68,"Flea_Index__Rodents_":2.2667000000000002,"Flea_Index__R__rattus_":2.2667000000000002,"S__fonquerniei_Index__R__rattus_":0.16669999999999999,"X__cheopis_Index__R__rattus_":2.1000000000000001,"Seropositive_Count":0,"Source":"Rasoamalala et al. 2024 / Parany et al. 2025 - IPM Ankazobe longitudinal surveillance (data_plague_madagascar.xlsx)","Longitude":47.116700000000002,"Latitude":-18.316700000000001}},{"type":"Feature","id":36,"geometry":{"type":"Point","coordinates":[47.116700000000037,-18.316699999999969]},"properties":{"OBJECTID":36,"Date":"2019-05-05","Series":2,"Locality":"Ankazobe","Fleas":38,"S__fonquerniei_Count":0,"X__cheopis_Count":38,"Rodents":29,"R__rattus_Count":29,"Fleas_on_R__rattus":38,"Flea_Index__Rodents_":1.3103,"Flea_Index__R__rattus_":1.3103,"S__fonquerniei_Index__R__rattus_":0,"X__cheopis_Index__R__rattus_":1.3103,"Seropositive_Count":0,"Source":"Rasoamalala et al. 2024 / Parany et al. 2025 - IPM Ankazobe longitudinal surveillance (data_plague_madagascar.xlsx)","Longitude":47.116700000000002,"Latitude":-18.316700000000001}},{"type":"Feature","id":37,"geometry":{"type":"Point","coordinates":[47.094400000000064,-18.316699999999969]},"properties":{"OBJECTID":37,"Date":"2019-06-10","Series":3,"Locality":"Ambohitromby","Fleas":2,"S__fonquerniei_Count":2,"X__cheopis_Count":0,"Rodents":35,"R__rattus_Count":31,"Fleas_on_R__rattus":2,"Flea_Index__Rodents_":0.057099999999999998,"Flea_Index__R__rattus_":0.064500000000000002,"S__fonquerniei_Index__R__rattus_":0.064500000000000002,"X__cheopis_Index__R__rattus_":0,"Seropositive_Count":0,"Source":"Rasoamalala et al. 2024 / Parany et al. 2025 - IPM Ankazobe longitudinal surveillance (data_plague_madagascar.xlsx)","Longitude":47.0944,"Latitude":-18.316700000000001}},{"type":"Feature","id":38,"geometry":{"type":"Point","coordinates":[47.094400000000064,-18.316699999999969]},"properties":{"OBJECTID":38,"Date":"2019-06-11","Series":3,"Locality":"Ambohitromby","Fleas":16,"S__fonquerniei_Count":3,"X__cheopis_Count":13,"Rodents":31,"R__rattus_Count":25,"Fleas_on_R__rattus":13,"Flea_Index__Rodents_":0.5161,"Flea_Index__R__rattus_":0.52000000000000002,"S__fonquerniei_Index__R__rattus_":0.12,"X__cheopis_Index__R__rattus_":0.52000000000000002,"Seropositive_Count":0,"Source":"Rasoamalala et al. 2024 / Parany et al. 2025 - IPM Ankazobe longitudinal surveillance (data_plague_madagascar.xlsx)","Longitude":47.0944,"Latitude":-18.316700000000001}},{"type":"Feature","id":39,"geometry":{"type":"Point","coordinates":[47.094400000000064,-18.316699999999969]},"properties":{"OBJECTID":39,"Date":"2019-06-12","Series":3,"Locality":"Ambohitromby","Fleas":30,"S__fonquerniei_Count":2,"X__cheopis_Count":28,"Rodents":36,"R__rattus_Count":34,"Fleas_on_R__rattus":30,"Flea_Index__Rodents_":0.83330000000000004,"Flea_Index__R__rattus_":0.88239999999999996,"S__fonquerniei_Index__R__rattus_":0.058799999999999998,"X__cheopis_Index__R__rattus_":0.82350000000000001,"Seropositive_Count":0,"Source":"Rasoamalala et al. 2024 / Parany et al. 2025 - IPM Ankazobe longitudinal surveillance (data_plague_madagascar.xlsx)","Longitude":47.0944,"Latitude":-18.316700000000001}},{"type":"Feature","id":40,"geometry":{"type":"Point","coordinates":[47.11000000000007,-18.289999999999964]},"properties":{"OBJECTID":40,"Date":"2019-06-14","Series":3,"Locality":"Ambolotarakely","Fleas":16,"S__fonquerniei_Count":16,"X__cheopis_Count":0,"Rodents":26,"R__rattus_Count":24,"Fleas_on_R__rattus":16,"Flea_Index__Rodents_":0.61539999999999995,"Flea_Index__R__rattus_":0.66669999999999996,"S__fonquerniei_Index__R__rattus_":0.66669999999999996,"X__cheopis_Index__R__rattus_":0,"Seropositive_Count":0,"Source":"Rasoamalala et al. 2024 / Parany et al. 2025 - IPM Ankazobe longitudinal surveillance (data_plague_madagascar.xlsx)","Longitude":47.109999999999999,"Latitude":-18.289999999999999}},{"type":"Feature","id":41,"geometry":{"type":"Point","coordinates":[47.11000000000007,-18.289999999999964]},"properties":{"OBJECTID":41,"Date":"2019-06-15","Series":3,"Locality":"Ambolotarakely","Fleas":2,"S__fonquerniei_Count":2,"X__cheopis_Count":0,"Rodents":16,"R__rattus_Count":14,"Fleas_on_R__rattus":2,"Flea_Index__Rodents_":0.125,"Flea_Index__R__rattus_":0.1429,"S__fonquerniei_Index__R__rattus_":0.1429,"X__cheopis_Index__R__rattus_":0,"Seropositive_Count":0,"Source":"Rasoamalala et al. 2024 / Parany et al. 2025 - IPM Ankazobe longitudinal surveillance (data_plague_madagascar.xlsx)","Longitude":47.109999999999999,"Latitude":-18.289999999999999}},{"type":"Feature","id":42,"geometry":{"type":"Point","coordinates":[47.11000000000007,-18.289999999999964]},"properties":{"OBJECTID":42,"Date":"2019-06-16","Series":3,"Locality":"Ambolotarakely","Fleas":1,"S__fonquerniei_Count":1,"X__cheopis_Count":0,"Rodents":11,"R__rattus_Count":7,"Fleas_on_R__rattus":1,"Flea_Index__Rodents_":0.090899999999999995,"Flea_Index__R__rattus_":0.1429,"S__fonquerniei_Index__R__rattus_":0.1429,"X__cheopis_Index__R__rattus_":0,"Seropositive_Count":0,"Source":"Rasoamalala et al. 2024 / Parany et al. 2025 - IPM Ankazobe longitudinal surveillance (data_plague_madagascar.xlsx)","Longitude":47.109999999999999,"Latitude":-18.289999999999999}},{"type":"Feature","id":43,"geometry":{"type":"Point","coordinates":[47.120000000000061,-18.339999999999975]},"properties":{"OBJECTID":43,"Date":"2019-06-18","Series":3,"Locality":"Antakavana","Fleas":6,"S__fonquerniei_Count":6,"X__cheopis_Count":0,"Rodents":62,"R__rattus_Count":56,"Fleas_on_R__rattus":6,"Flea_Index__Rodents_":0.096799999999999997,"Flea_Index__R__rattus_":0.1071,"S__fonquerniei_Index__R__rattus_":0.1071,"X__cheopis_Index__R__rattus_":0,"Seropositive_Count":0,"Source":"Rasoamalala et al. 2024 / Parany et al. 2025 - IPM Ankazobe longitudinal surveillance (data_plague_madagascar.xlsx)","Longitude":47.119999999999997,"Latitude":-18.34}},{"type":"Feature","id":44,"geometry":{"type":"Point","coordinates":[47.120000000000061,-18.339999999999975]},"properties":{"OBJECTID":44,"Date":"2019-06-19","Series":3,"Locality":"Antakavana","Fleas":27,"S__fonquerniei_Count":26,"X__cheopis_Count":1,"Rodents":56,"R__rattus_Count":53,"Fleas_on_R__rattus":24,"Flea_Index__Rodents_":0.48209999999999997,"Flea_Index__R__rattus_":0.45279999999999998,"S__fonquerniei_Index__R__rattus_":0.49059999999999998,"X__cheopis_Index__R__rattus_":0.0189,"Seropositive_Count":0,"Source":"Rasoamalala et al. 2024 / Parany et al. 2025 - IPM Ankazobe longitudinal surveillance (data_plague_madagascar.xlsx)","Longitude":47.119999999999997,"Latitude":-18.34}},{"type":"Feature","id":45,"geometry":{"type":"Point","coordinates":[47.120000000000061,-18.339999999999975]},"properties":{"OBJECTID":45,"Date":"2019-06-20","Series":3,"Locality":"Antakavana","Fleas":6,"S__fonquerniei_Count":5,"X__cheopis_Count":1,"Rodents":55,"R__rattus_Count":48,"Fleas_on_R__rattus":6,"Flea_Index__Rodents_":0.1091,"Flea_Index__R__rattus_":0.125,"S__fonquerniei_Index__R__rattus_":0.1042,"X__cheopis_Index__R__rattus_":0.020799999999999999,"Seropositive_Count":0,"Source":"Rasoamalala et al. 2024 / Parany et al. 2025 - IPM Ankazobe longitudinal surveillance (data_plague_madagascar.xlsx)","Longitude":47.119999999999997,"Latitude":-18.34}},{"type":"Feature","id":46,"geometry":{"type":"Point","coordinates":[47.080000000000041,-18.299999999999955]},"properties":{"OBJECTID":46,"Date":"2019-06-25","Series":3,"Locality":"Kiangara","Fleas":29,"S__fonquerniei_Count":19,"X__cheopis_Count":9,"Rodents":49,"R__rattus_Count":44,"Fleas_on_R__rattus":28,"Flea_Index__Rodents_":0.59179999999999999,"Flea_Index__R__rattus_":0.63639999999999997,"S__fonquerniei_Index__R__rattus_":0.43180000000000002,"X__cheopis_Index__R__rattus_":0.20449999999999999,"Seropositive_Count":0,"Source":"Rasoamalala et al. 2024 / Parany et al. 2025 - IPM Ankazobe longitudinal surveillance (data_plague_madagascar.xlsx)","Longitude":47.079999999999998,"Latitude":-18.300000000000001}},{"type":"Feature","id":47,"geometry":{"type":"Point","coordinates":[47.080000000000041,-18.299999999999955]},"properties":{"OBJECTID":47,"Date":"2019-06-26","Series":3,"Locality":"Kiangara","Fleas":23,"S__fonquerniei_Count":20,"X__cheopis_Count":3,"Rodents":37,"R__rattus_Count":29,"Fleas_on_R__rattus":21,"Flea_Index__Rodents_":0.62160000000000004,"Flea_Index__R__rattus_":0.72409999999999997,"S__fonquerniei_Index__R__rattus_":0.68969999999999998,"X__cheopis_Index__R__rattus_":0.10340000000000001,"Seropositive_Count":0,"Source":"Rasoamalala et al. 2024 / Parany et al. 2025 - IPM Ankazobe longitudinal surveillance (data_plague_madagascar.xlsx)","Longitude":47.079999999999998,"Latitude":-18.300000000000001}},{"type":"Feature","id":48,"geometry":{"type":"Point","coordinates":[47.080000000000041,-18.299999999999955]},"properties":{"OBJECTID":48,"Date":"2019-06-27","Series":3,"Locality":"Kiangara","Fleas":17,"S__fonquerniei_Count":15,"X__cheopis_Count":2,"Rodents":31,"R__rattus_Count":25,"Fleas_on_R__rattus":17,"Flea_Index__Rodents_":0.5484,"Flea_Index__R__rattus_":0.68000000000000005,"S__fonquerniei_Index__R__rattus_":0.59999999999999998,"X__cheopis_Index__R__rattus_":0.080000000000000002,"Seropositive_Count":0,"Source":"Rasoamalala et al. 2024 / Parany et al. 2025 - IPM Ankazobe longitudinal surveillance (data_plague_madagascar.xlsx)","Longitude":47.079999999999998,"Latitude":-18.300000000000001}},{"type":"Feature","id":49,"geometry":{"type":"Point","coordinates":[47.105000000000075,-18.354999999999961]},"properties":{"OBJECTID":49,"Date":"2019-06-29","Series":3,"Locality":"Talata Angavo","Fleas":39,"S__fonquerniei_Count":30,"X__cheopis_Count":8,"Rodents":41,"R__rattus_Count":38,"Fleas_on_R__rattus":37,"Flea_Index__Rodents_":0.95120000000000005,"Flea_Index__R__rattus_":0.97370000000000001,"S__fonquerniei_Index__R__rattus_":0.78949999999999998,"X__cheopis_Index__R__rattus_":0.21049999999999999,"Seropositive_Count":0,"Source":"Rasoamalala et al. 2024 / Parany et al. 2025 - IPM Ankazobe longitudinal surveillance (data_plague_madagascar.xlsx)","Longitude":47.104999999999997,"Latitude":-18.355}},{"type":"Feature","id":50,"geometry":{"type":"Point","coordinates":[47.105000000000075,-18.354999999999961]},"properties":{"OBJECTID":50,"Date":"2019-06-30","Series":3,"Locality":"Talata Angavo","Fleas":85,"S__fonquerniei_Count":56,"X__cheopis_Count":29,"Rodents":41,"R__rattus_Count":36,"Fleas_on_R__rattus":85,"Flea_Index__Rodents_":2.0731999999999999,"Flea_Index__R__rattus_":2.3611,"S__fonquerniei_Index__R__rattus_":1.5556000000000001,"X__cheopis_Index__R__rattus_":0.80559999999999998,"Seropositive_Count":0,"Source":"Rasoamalala et al. 2024 / Parany et al. 2025 - IPM Ankazobe longitudinal surveillance (data_plague_madagascar.xlsx)","Longitude":47.104999999999997,"Latitude":-18.355}},{"type":"Feature","id":51,"geometry":{"type":"Point","coordinates":[47.105000000000075,-18.354999999999961]},"properties":{"OBJECTID":51,"Date":"2019-07-01","Series":3,"Locality":"Talata Angavo","Fleas":49,"S__fonquerniei_Count":37,"X__cheopis_Count":12,"Rodents":32,"R__rattus_Count":30,"Fleas_on_R__rattus":49,"Flea_Index__Rodents_":1.5311999999999999,"Flea_Index__R__rattus_":1.6333,"S__fonquerniei_Index__R__rattus_":1.2333000000000001,"X__cheopis_Index__R__rattus_":0.40000000000000002,"Seropositive_Count":0,"Source":"Rasoamalala et al. 2024 / Parany et al. 2025 - IPM Ankazobe longitudinal surveillance (data_plague_madagascar.xlsx)","Longitude":47.104999999999997,"Latitude":-18.355}},{"type":"Feature","id":52,"geometry":{"type":"Point","coordinates":[47.116700000000037,-18.316699999999969]},"properties":{"OBJECTID":52,"Date":"2019-07-02","Series":3,"Locality":"Ankazobe","Fleas":20,"S__fonquerniei_Count":15,"X__cheopis_Count":5,"Rodents":41,"R__rattus_Count":40,"Fleas_on_R__rattus":20,"Flea_Index__Rodents_":0.48780000000000001,"Flea_Index__R__rattus_":0.5,"S__fonquerniei_Index__R__rattus_":0.375,"X__cheopis_Index__R__rattus_":0.125,"Seropositive_Count":0,"Source":"Rasoamalala et al. 2024 / Parany et al. 2025 - IPM Ankazobe longitudinal surveillance (data_plague_madagascar.xlsx)","Longitude":47.116700000000002,"Latitude":-18.316700000000001}},{"type":"Feature","id":53,"geometry":{"type":"Point","coordinates":[47.116700000000037,-18.316699999999969]},"properties":{"OBJECTID":53,"Date":"2019-07-03","Series":3,"Locality":"Ankazobe","Fleas":43,"S__fonquerniei_Count":39,"X__cheopis_Count":4,"Rodents":33,"R__rattus_Count":33,"Fleas_on_R__rattus":43,"Flea_Index__Rodents_":1.3029999999999999,"Flea_Index__R__rattus_":1.3029999999999999,"S__fonquerniei_Index__R__rattus_":1.1818,"X__cheopis_Index__R__rattus_":0.1212,"Seropositive_Count":0,"Source":"Rasoamalala et al. 2024 / Parany et al. 2025 - IPM Ankazobe longitudinal surveillance (data_plague_madagascar.xlsx)","Longitude":47.116700000000002,"Latitude":-18.316700000000001}},{"type":"Feature","id":54,"geometry":{"type":"Point","coordinates":[47.116700000000037,-18.316699999999969]},"properties":{"OBJECTID":54,"Date":"2019-07-04","Series":3,"Locality":"Ankazobe","Fleas":32,"S__fonquerniei_Count":28,"X__cheopis_Count":4,"Rodents":31,"R__rattus_Count":30,"Fleas_on_R__rattus":32,"Flea_Index__Rodents_":1.0323,"Flea_Index__R__rattus_":1.0667,"S__fonquerniei_Index__R__rattus_":0.93330000000000002,"X__cheopis_Index__R__rattus_":0.1333,"Seropositive_Count":0,"Source":"Rasoamalala et al. 2024 / Parany et al. 2025 - IPM Ankazobe longitudinal surveillance (data_plague_madagascar.xlsx)","Longitude":47.116700000000002,"Latitude":-18.316700000000001}},{"type":"Feature","id":55,"geometry":{"type":"Point","coordinates":[47.105000000000075,-18.354999999999961]},"properties":{"OBJECTID":55,"Date":"2019-10-26","Series":4,"Locality":"Talata Angavo","Fleas":41,"S__fonquerniei_Count":27,"X__cheopis_Count":14,"Rodents":30,"R__rattus_Count":29,"Fleas_on_R__rattus":41,"Flea_Index__Rodents_":1.3667,"Flea_Index__R__rattus_":1.4137999999999999,"S__fonquerniei_Index__R__rattus_":0.93100000000000005,"X__cheopis_Index__R__rattus_":0.48280000000000001,"Seropositive_Count":0,"Source":"Rasoamalala et al. 2024 / Parany et al. 2025 - IPM Ankazobe longitudinal surveillance (data_plague_madagascar.xlsx)","Longitude":47.104999999999997,"Latitude":-18.355}},{"type":"Feature","id":56,"geometry":{"type":"Point","coordinates":[47.105000000000075,-18.354999999999961]},"properties":{"OBJECTID":56,"Date":"2019-10-27","Series":4,"Locality":"Talata Angavo","Fleas":8,"S__fonquerniei_Count":6,"X__cheopis_Count":2,"Rodents":7,"R__rattus_Count":5,"Fleas_on_R__rattus":8,"Flea_Index__Rodents_":1.1429,"Flea_Index__R__rattus_":1.6000000000000001,"S__fonquerniei_Index__R__rattus_":1.2,"X__cheopis_Index__R__rattus_":0.40000000000000002,"Seropositive_Count":0,"Source":"Rasoamalala et al. 2024 / Parany et al. 2025 - IPM Ankazobe longitudinal surveillance (data_plague_madagascar.xlsx)","Longitude":47.104999999999997,"Latitude":-18.355}},{"type":"Feature","id":57,"geometry":{"type":"Point","coordinates":[47.105000000000075,-18.354999999999961]},"properties":{"OBJECTID":57,"Date":"2019-10-28","Series":4,"Locality":"Talata Angavo","Fleas":12,"S__fonquerniei_Count":9,"X__cheopis_Count":3,"Rodents":11,"R__rattus_Count":9,"Fleas_on_R__rattus":12,"Flea_Index__Rodents_":1.0909,"Flea_Index__R__rattus_":1.3332999999999999,"S__fonquerniei_Index__R__rattus_":1,"X__cheopis_Index__R__rattus_":0.33329999999999999,"Seropositive_Count":0,"Source":"Rasoamalala et al. 2024 / Parany et al. 2025 - IPM Ankazobe longitudinal surveillance (data_plague_madagascar.xlsx)","Longitude":47.104999999999997,"Latitude":-18.355}},{"type":"Feature","id":58,"geometry":{"type":"Point","coordinates":[47.080000000000041,-18.299999999999955]},"properties":{"OBJECTID":58,"Date":"2019-10-31","Series":4,"Locality":"Kiangara","Fleas":96,"S__fonquerniei_Count":52,"X__cheopis_Count":43,"Rodents":33,"R__rattus_Count":31,"Fleas_on_R__rattus":95,"Flea_Index__Rodents_":2.9091,"Flea_Index__R__rattus_":3.0644999999999998,"S__fonquerniei_Index__R__rattus_":1.6774,"X__cheopis_Index__R__rattus_":1.3871,"Seropositive_Count":0,"Source":"Rasoamalala et al. 2024 / Parany et al. 2025 - IPM Ankazobe longitudinal surveillance (data_plague_madagascar.xlsx)","Longitude":47.079999999999998,"Latitude":-18.300000000000001}},{"type":"Feature","id":59,"geometry":{"type":"Point","coordinates":[47.080000000000041,-18.299999999999955]},"properties":{"OBJECTID":59,"Date":"2019-11-01","Series":4,"Locality":"Kiangara","Fleas":107,"S__fonquerniei_Count":79,"X__cheopis_Count":28,"Rodents":27,"R__rattus_Count":24,"Fleas_on_R__rattus":107,"Flea_Index__Rodents_":3.9630000000000001,"Flea_Index__R__rattus_":4.4583000000000004,"S__fonquerniei_Index__R__rattus_":3.2917000000000001,"X__cheopis_Index__R__rattus_":1.1667000000000001,"Seropositive_Count":0,"Source":"Rasoamalala et al. 2024 / Parany et al. 2025 - IPM Ankazobe longitudinal surveillance (data_plague_madagascar.xlsx)","Longitude":47.079999999999998,"Latitude":-18.300000000000001}},{"type":"Feature","id":60,"geometry":{"type":"Point","coordinates":[47.080000000000041,-18.299999999999955]},"properties":{"OBJECTID":60,"Date":"2019-11-02","Series":4,"Locality":"Kiangara","Fleas":108,"S__fonquerniei_Count":55,"X__cheopis_Count":53,"Rodents":26,"R__rattus_Count":25,"Fleas_on_R__rattus":78,"Flea_Index__Rodents_":4.1538000000000004,"Flea_Index__R__rattus_":3.1200000000000001,"S__fonquerniei_Index__R__rattus_":2.2000000000000002,"X__cheopis_Index__R__rattus_":2.1200000000000001,"Seropositive_Count":0,"Source":"Rasoamalala et al. 2024 / Parany et al. 2025 - IPM Ankazobe longitudinal surveillance (data_plague_madagascar.xlsx)","Longitude":47.079999999999998,"Latitude":-18.300000000000001}},{"type":"Feature","id":61,"geometry":{"type":"Point","coordinates":[47.120000000000061,-18.339999999999975]},"properties":{"OBJECTID":61,"Date":"2019-11-03","Series":4,"Locality":"Antakavana","Fleas":65,"S__fonquerniei_Count":64,"X__cheopis_Count":1,"Rodents":34,"R__rattus_Count":29,"Fleas_on_R__rattus":63,"Flea_Index__Rodents_":1.9117999999999999,"Flea_Index__R__rattus_":2.1724000000000001,"S__fonquerniei_Index__R__rattus_":2.2069000000000001,"X__cheopis_Index__R__rattus_":0.034500000000000003,"Seropositive_Count":0,"Source":"Rasoamalala et al. 2024 / Parany et al. 2025 - IPM Ankazobe longitudinal surveillance (data_plague_madagascar.xlsx)","Longitude":47.119999999999997,"Latitude":-18.34}},{"type":"Feature","id":62,"geometry":{"type":"Point","coordinates":[47.120000000000061,-18.339999999999975]},"properties":{"OBJECTID":62,"Date":"2019-11-04","Series":4,"Locality":"Antakavana","Fleas":44,"S__fonquerniei_Count":44,"X__cheopis_Count":0,"Rodents":14,"R__rattus_Count":9,"Fleas_on_R__rattus":40,"Flea_Index__Rodents_":3.1429,"Flea_Index__R__rattus_":4.4443999999999999,"S__fonquerniei_Index__R__rattus_":4.8888999999999996,"X__cheopis_Index__R__rattus_":0,"Seropositive_Count":1,"Source":"Rasoamalala et al. 2024 / Parany et al. 2025 - IPM Ankazobe longitudinal surveillance (data_plague_madagascar.xlsx)","Longitude":47.119999999999997,"Latitude":-18.34}},{"type":"Feature","id":63,"geometry":{"type":"Point","coordinates":[47.120000000000061,-18.339999999999975]},"properties":{"OBJECTID":63,"Date":"2019-11-05","Series":4,"Locality":"Antakavana","Fleas":9,"S__fonquerniei_Count":4,"X__cheopis_Count":5,"Rodents":6,"R__rattus_Count":4,"Fleas_on_R__rattus":9,"Flea_Index__Rodents_":1.5,"Flea_Index__R__rattus_":2.25,"S__fonquerniei_Index__R__rattus_":1,"X__cheopis_Index__R__rattus_":1.25,"Seropositive_Count":0,"Source":"Rasoamalala et al. 2024 / Parany et al. 2025 - IPM Ankazobe longitudinal surveillance (data_plague_madagascar.xlsx)","Longitude":47.119999999999997,"Latitude":-18.34}},{"type":"Feature","id":64,"geometry":{"type":"Point","coordinates":[47.116700000000037,-18.316699999999969]},"properties":{"OBJECTID":64,"Date":"2019-11-06","Series":4,"Locality":"Ankazobe","Fleas":23,"S__fonquerniei_Count":20,"X__cheopis_Count":3,"Rodents":19,"R__rattus_Count":19,"Fleas_on_R__rattus":23,"Flea_Index__Rodents_":1.2104999999999999,"Flea_Index__R__rattus_":1.2104999999999999,"S__fonquerniei_Index__R__rattus_":1.0526,"X__cheopis_Index__R__rattus_":0.15790000000000001,"Seropositive_Count":0,"Source":"Rasoamalala et al. 2024 / Parany et al. 2025 - IPM Ankazobe longitudinal surveillance (data_plague_madagascar.xlsx)","Longitude":47.116700000000002,"Latitude":-18.316700000000001}},{"type":"Feature","id":65,"geometry":{"type":"Point","coordinates":[47.116700000000037,-18.316699999999969]},"properties":{"OBJECTID":65,"Date":"2019-11-07","Series":4,"Locality":"Ankazobe","Fleas":15,"S__fonquerniei_Count":10,"X__cheopis_Count":5,"Rodents":18,"R__rattus_Count":16,"Fleas_on_R__rattus":15,"Flea_Index__Rodents_":0.83330000000000004,"Flea_Index__R__rattus_":0.9375,"S__fonquerniei_Index__R__rattus_":0.625,"X__cheopis_Index__R__rattus_":0.3125,"Seropositive_Count":0,"Source":"Rasoamalala et al. 2024 / Parany et al. 2025 - IPM Ankazobe longitudinal surveillance (data_plague_madagascar.xlsx)","Longitude":47.116700000000002,"Latitude":-18.316700000000001}},{"type":"Feature","id":66,"geometry":{"type":"Point","coordinates":[47.116700000000037,-18.316699999999969]},"properties":{"OBJECTID":66,"Date":"2019-11-08","Series":4,"Locality":"Ankazobe","Fleas":20,"S__fonquerniei_Count":17,"X__cheopis_Count":3,"Rodents":17,"R__rattus_Count":13,"Fleas_on_R__rattus":20,"Flea_Index__Rodents_":1.1765000000000001,"Flea_Index__R__rattus_":1.5385,"S__fonquerniei_Index__R__rattus_":1.3077000000000001,"X__cheopis_Index__R__rattus_":0.23080000000000001,"Seropositive_Count":0,"Source":"Rasoamalala et al. 2024 / Parany et al. 2025 - IPM Ankazobe longitudinal surveillance (data_plague_madagascar.xlsx)","Longitude":47.116700000000002,"Latitude":-18.316700000000001}},{"type":"Feature","id":67,"geometry":{"type":"Point","coordinates":[47.11000000000007,-18.289999999999964]},"properties":{"OBJECTID":67,"Date":"2019-11-11","Series":4,"Locality":"Ambolotarakely","Fleas":70,"S__fonquerniei_Count":61,"X__cheopis_Count":9,"Rodents":21,"R__rattus_Count":20,"Fleas_on_R__rattus":70,"Flea_Index__Rodents_":3.3332999999999999,"Flea_Index__R__rattus_":3.5,"S__fonquerniei_Index__R__rattus_":3.0499999999999998,"X__cheopis_Index__R__rattus_":0.45000000000000001,"Seropositive_Count":0,"Source":"Rasoamalala et al. 2024 / Parany et al. 2025 - IPM Ankazobe longitudinal surveillance (data_plague_madagascar.xlsx)","Longitude":47.109999999999999,"Latitude":-18.289999999999999}},{"type":"Feature","id":68,"geometry":{"type":"Point","coordinates":[47.11000000000007,-18.289999999999964]},"properties":{"OBJECTID":68,"Date":"2019-11-12","Series":4,"Locality":"Ambolotarakely","Fleas":33,"S__fonquerniei_Count":5,"X__cheopis_Count":28,"Rodents":14,"R__rattus_Count":12,"Fleas_on_R__rattus":26,"Flea_Index__Rodents_":2.3571,"Flea_Index__R__rattus_":2.1667000000000001,"S__fonquerniei_Index__R__rattus_":0.41670000000000001,"X__cheopis_Index__R__rattus_":2.3332999999999999,"Seropositive_Count":0,"Source":"Rasoamalala et al. 2024 / Parany et al. 2025 - IPM Ankazobe longitudinal surveillance (data_plague_madagascar.xlsx)","Longitude":47.109999999999999,"Latitude":-18.289999999999999}},{"type":"Feature","id":69,"geometry":{"type":"Point","coordinates":[47.11000000000007,-18.289999999999964]},"properties":{"OBJECTID":69,"Date":"2019-11-13","Series":4,"Locality":"Ambolotarakely","Fleas":24,"S__fonquerniei_Count":23,"X__cheopis_Count":1,"Rodents":21,"R__rattus_Count":17,"Fleas_on_R__rattus":23,"Flea_Index__Rodents_":1.1429,"Flea_Index__R__rattus_":1.3529,"S__fonquerniei_Index__R__rattus_":1.3529,"X__cheopis_Index__R__rattus_":0.058799999999999998,"Seropositive_Count":0,"Source":"Rasoamalala et al. 2024 / Parany et al. 2025 - IPM Ankazobe longitudinal surveillance (data_plague_madagascar.xlsx)","Longitude":47.109999999999999,"Latitude":-18.289999999999999}},{"type":"Feature","id":70,"geometry":{"type":"Point","coordinates":[47.094400000000064,-18.316699999999969]},"properties":{"OBJECTID":70,"Date":"2019-11-15","Series":4,"Locality":"Ambohitromby","Fleas":20,"S__fonquerniei_Count":19,"X__cheopis_Count":0,"Rodents":17,"R__rattus_Count":14,"Fleas_on_R__rattus":19,"Flea_Index__Rodents_":1.1765000000000001,"Flea_Index__R__rattus_":1.3571,"S__fonquerniei_Index__R__rattus_":1.3571,"X__cheopis_Index__R__rattus_":0,"Seropositive_Count":0,"Source":"Rasoamalala et al. 2024 / Parany et al. 2025 - IPM Ankazobe longitudinal surveillance (data_plague_madagascar.xlsx)","Longitude":47.0944,"Latitude":-18.316700000000001}},{"type":"Feature","id":71,"geometry":{"type":"Point","coordinates":[47.094400000000064,-18.316699999999969]},"properties":{"OBJECTID":71,"Date":"2019-11-16","Series":4,"Locality":"Ambohitromby","Fleas":74,"S__fonquerniei_Count":72,"X__cheopis_Count":2,"Rodents":26,"R__rattus_Count":22,"Fleas_on_R__rattus":74,"Flea_Index__Rodents_":2.8462000000000001,"Flea_Index__R__rattus_":3.3635999999999999,"S__fonquerniei_Index__R__rattus_":3.2726999999999999,"X__cheopis_Index__R__rattus_":0.090899999999999995,"Seropositive_Count":0,"Source":"Rasoamalala et al. 2024 / Parany et al. 2025 - IPM Ankazobe longitudinal surveillance (data_plague_madagascar.xlsx)","Longitude":47.0944,"Latitude":-18.316700000000001}},{"type":"Feature","id":72,"geometry":{"type":"Point","coordinates":[47.094400000000064,-18.316699999999969]},"properties":{"OBJECTID":72,"Date":"2019-11-17","Series":4,"Locality":"Ambohitromby","Fleas":87,"S__fonquerniei_Count":85,"X__cheopis_Count":1,"Rodents":22,"R__rattus_Count":19,"Fleas_on_R__rattus":87,"Flea_Index__Rodents_":3.9544999999999999,"Flea_Index__R__rattus_":4.5789,"S__fonquerniei_Index__R__rattus_":4.4737,"X__cheopis_Index__R__rattus_":0.052600000000000001,"Seropositive_Count":0,"Source":"Rasoamalala et al. 2024 / Parany et al. 2025 - IPM Ankazobe longitudinal surveillance (data_plague_madagascar.xlsx)","Longitude":47.0944,"Latitude":-18.316700000000001}},{"type":"Feature","id":73,"geometry":{"type":"Point","coordinates":[47.080000000000041,-18.299999999999955]},"properties":{"OBJECTID":73,"Date":"2020-02-04","Series":5,"Locality":"Kiangara","Fleas":18,"S__fonquerniei_Count":3,"X__cheopis_Count":15,"Rodents":30,"R__rattus_Count":23,"Fleas_on_R__rattus":18,"Flea_Index__Rodents_":0.59999999999999998,"Flea_Index__R__rattus_":0.78259999999999996,"S__fonquerniei_Index__R__rattus_":0.13039999999999999,"X__cheopis_Index__R__rattus_":0.6522,"Seropositive_Count":0,"Source":"Rasoamalala et al. 2024 / Parany et al. 2025 - IPM Ankazobe longitudinal surveillance (data_plague_madagascar.xlsx)","Longitude":47.079999999999998,"Latitude":-18.300000000000001}},{"type":"Feature","id":74,"geometry":{"type":"Point","coordinates":[47.080000000000041,-18.299999999999955]},"properties":{"OBJECTID":74,"Date":"2020-02-05","Series":5,"Locality":"Kiangara","Fleas":9,"S__fonquerniei_Count":2,"X__cheopis_Count":7,"Rodents":23,"R__rattus_Count":20,"Fleas_on_R__rattus":9,"Flea_Index__Rodents_":0.39129999999999998,"Flea_Index__R__rattus_":0.45000000000000001,"S__fonquerniei_Index__R__rattus_":0.10000000000000001,"X__cheopis_Index__R__rattus_":0.34999999999999998,"Seropositive_Count":0,"Source":"Rasoamalala et al. 2024 / Parany et al. 2025 - IPM Ankazobe longitudinal surveillance (data_plague_madagascar.xlsx)","Longitude":47.079999999999998,"Latitude":-18.300000000000001}},{"type":"Feature","id":75,"geometry":{"type":"Point","coordinates":[47.080000000000041,-18.299999999999955]},"properties":{"OBJECTID":75,"Date":"2020-02-06","Series":5,"Locality":"Kiangara","Fleas":9,"S__fonquerniei_Count":2,"X__cheopis_Count":7,"Rodents":14,"R__rattus_Count":10,"Fleas_on_R__rattus":8,"Flea_Index__Rodents_":0.64290000000000003,"Flea_Index__R__rattus_":0.80000000000000004,"S__fonquerniei_Index__R__rattus_":0.20000000000000001,"X__cheopis_Index__R__rattus_":0.69999999999999996,"Seropositive_Count":0,"Source":"Rasoamalala et al. 2024 / Parany et al. 2025 - IPM Ankazobe longitudinal surveillance (data_plague_madagascar.xlsx)","Longitude":47.079999999999998,"Latitude":-18.300000000000001}},{"type":"Feature","id":76,"geometry":{"type":"Point","coordinates":[47.120000000000061,-18.339999999999975]},"properties":{"OBJECTID":76,"Date":"2020-02-08","Series":5,"Locality":"Antakavana","Fleas":5,"S__fonquerniei_Count":5,"X__cheopis_Count":0,"Rodents":21,"R__rattus_Count":16,"Fleas_on_R__rattus":5,"Flea_Index__Rodents_":0.23810000000000001,"Flea_Index__R__rattus_":0.3125,"S__fonquerniei_Index__R__rattus_":0.3125,"X__cheopis_Index__R__rattus_":0,"Seropositive_Count":0,"Source":"Rasoamalala et al. 2024 / Parany et al. 2025 - IPM Ankazobe longitudinal surveillance (data_plague_madagascar.xlsx)","Longitude":47.119999999999997,"Latitude":-18.34}},{"type":"Feature","id":77,"geometry":{"type":"Point","coordinates":[47.120000000000061,-18.339999999999975]},"properties":{"OBJECTID":77,"Date":"2020-02-09","Series":5,"Locality":"Antakavana","Fleas":1,"S__fonquerniei_Count":1,"X__cheopis_Count":0,"Rodents":13,"R__rattus_Count":9,"Fleas_on_R__rattus":1,"Flea_Index__Rodents_":0.076899999999999996,"Flea_Index__R__rattus_":0.1111,"S__fonquerniei_Index__R__rattus_":0.1111,"X__cheopis_Index__R__rattus_":0,"Seropositive_Count":0,"Source":"Rasoamalala et al. 2024 / Parany et al. 2025 - IPM Ankazobe longitudinal surveillance (data_plague_madagascar.xlsx)","Longitude":47.119999999999997,"Latitude":-18.34}},{"type":"Feature","id":78,"geometry":{"type":"Point","coordinates":[47.120000000000061,-18.339999999999975]},"properties":{"OBJECTID":78,"Date":"2020-02-10","Series":5,"Locality":"Antakavana","Fleas":2,"S__fonquerniei_Count":2,"X__cheopis_Count":0,"Rodents":7,"R__rattus_Count":4,"Fleas_on_R__rattus":2,"Flea_Index__Rodents_":0.28570000000000001,"Flea_Index__R__rattus_":0.5,"S__fonquerniei_Index__R__rattus_":0.5,"X__cheopis_Index__R__rattus_":0,"Seropositive_Count":0,"Source":"Rasoamalala et al. 2024 / Parany et al. 2025 - IPM Ankazobe longitudinal surveillance (data_plague_madagascar.xlsx)","Longitude":47.119999999999997,"Latitude":-18.34}},{"type":"Feature","id":79,"geometry":{"type":"Point","coordinates":[47.11000000000007,-18.289999999999964]},"properties":{"OBJECTID":79,"Date":"2020-02-12","Series":5,"Locality":"Ambolotarakely","Fleas":1,"S__fonquerniei_Count":1,"X__cheopis_Count":0,"Rodents":20,"R__rattus_Count":14,"Fleas_on_R__rattus":1,"Flea_Index__Rodents_":0.050000000000000003,"Flea_Index__R__rattus_":0.071400000000000005,"S__fonquerniei_Index__R__rattus_":0.071400000000000005,"X__cheopis_Index__R__rattus_":0,"Seropositive_Count":0,"Source":"Rasoamalala et al. 2024 / Parany et al. 2025 - IPM Ankazobe longitudinal surveillance (data_plague_madagascar.xlsx)","Longitude":47.109999999999999,"Latitude":-18.289999999999999}},{"type":"Feature","id":80,"geometry":{"type":"Point","coordinates":[47.11000000000007,-18.289999999999964]},"properties":{"OBJECTID":80,"Date":"2020-02-13","Series":5,"Locality":"Ambolotarakely","Fleas":1,"S__fonquerniei_Count":1,"X__cheopis_Count":0,"Rodents":22,"R__rattus_Count":16,"Fleas_on_R__rattus":1,"Flea_Index__Rodents_":0.045499999999999999,"Flea_Index__R__rattus_":0.0625,"S__fonquerniei_Index__R__rattus_":0.0625,"X__cheopis_Index__R__rattus_":0,"Seropositive_Count":0,"Source":"Rasoamalala et al. 2024 / Parany et al. 2025 - IPM Ankazobe longitudinal surveillance (data_plague_madagascar.xlsx)","Longitude":47.109999999999999,"Latitude":-18.289999999999999}},{"type":"Feature","id":81,"geometry":{"type":"Point","coordinates":[47.11000000000007,-18.289999999999964]},"properties":{"OBJECTID":81,"Date":"2020-02-14","Series":5,"Locality":"Ambolotarakely","Fleas":8,"S__fonquerniei_Count":2,"X__cheopis_Count":6,"Rodents":13,"R__rattus_Count":7,"Fleas_on_R__rattus":2,"Flea_Index__Rodents_":0.61539999999999995,"Flea_Index__R__rattus_":0.28570000000000001,"S__fonquerniei_Index__R__rattus_":0.28570000000000001,"X__cheopis_Index__R__rattus_":0.85709999999999997,"Seropositive_Count":0,"Source":"Rasoamalala et al. 2024 / Parany et al. 2025 - IPM Ankazobe longitudinal surveillance (data_plague_madagascar.xlsx)","Longitude":47.109999999999999,"Latitude":-18.289999999999999}},{"type":"Feature","id":82,"geometry":{"type":"Point","coordinates":[47.105000000000075,-18.354999999999961]},"properties":{"OBJECTID":82,"Date":"2020-02-16","Series":5,"Locality":"Talata Angavo","Fleas":17,"S__fonquerniei_Count":7,"X__cheopis_Count":10,"Rodents":35,"R__rattus_Count":29,"Fleas_on_R__rattus":16,"Flea_Index__Rodents_":0.48570000000000002,"Flea_Index__R__rattus_":0.55169999999999997,"S__fonquerniei_Index__R__rattus_":0.2414,"X__cheopis_Index__R__rattus_":0.3448,"Seropositive_Count":0,"Source":"Rasoamalala et al. 2024 / Parany et al. 2025 - IPM Ankazobe longitudinal surveillance (data_plague_madagascar.xlsx)","Longitude":47.104999999999997,"Latitude":-18.355}},{"type":"Feature","id":83,"geometry":{"type":"Point","coordinates":[47.105000000000075,-18.354999999999961]},"properties":{"OBJECTID":83,"Date":"2020-02-17","Series":5,"Locality":"Talata Angavo","Fleas":11,"S__fonquerniei_Count":3,"X__cheopis_Count":8,"Rodents":28,"R__rattus_Count":21,"Fleas_on_R__rattus":11,"Flea_Index__Rodents_":0.39290000000000003,"Flea_Index__R__rattus_":0.52380000000000004,"S__fonquerniei_Index__R__rattus_":0.1429,"X__cheopis_Index__R__rattus_":0.38100000000000001,"Seropositive_Count":0,"Source":"Rasoamalala et al. 2024 / Parany et al. 2025 - IPM Ankazobe longitudinal surveillance (data_plague_madagascar.xlsx)","Longitude":47.104999999999997,"Latitude":-18.355}},{"type":"Feature","id":84,"geometry":{"type":"Point","coordinates":[47.105000000000075,-18.354999999999961]},"properties":{"OBJECTID":84,"Date":"2020-02-18","Series":5,"Locality":"Talata Angavo","Fleas":8,"S__fonquerniei_Count":0,"X__cheopis_Count":8,"Rodents":14,"R__rattus_Count":10,"Fleas_on_R__rattus":8,"Flea_Index__Rodents_":0.57140000000000002,"Flea_Index__R__rattus_":0.80000000000000004,"S__fonquerniei_Index__R__rattus_":0,"X__cheopis_Index__R__rattus_":0.80000000000000004,"Seropositive_Count":0,"Source":"Rasoamalala et al. 2024 / Parany et al. 2025 - IPM Ankazobe longitudinal surveillance (data_plague_madagascar.xlsx)","Longitude":47.104999999999997,"Latitude":-18.355}},{"type":"Feature","id":85,"geometry":{"type":"Point","coordinates":[47.094400000000064,-18.316699999999969]},"properties":{"OBJECTID":85,"Date":"2020-02-20","Series":5,"Locality":"Ambohitromby","Fleas":18,"S__fonquerniei_Count":18,"X__cheopis_Count":0,"Rodents":29,"R__rattus_Count":24,"Fleas_on_R__rattus":13,"Flea_Index__Rodents_":0.62070000000000003,"Flea_Index__R__rattus_":0.54169999999999996,"S__fonquerniei_Index__R__rattus_":0.75,"X__cheopis_Index__R__rattus_":0,"Seropositive_Count":0,"Source":"Rasoamalala et al. 2024 / Parany et al. 2025 - IPM Ankazobe longitudinal surveillance (data_plague_madagascar.xlsx)","Longitude":47.0944,"Latitude":-18.316700000000001}},{"type":"Feature","id":86,"geometry":{"type":"Point","coordinates":[47.094400000000064,-18.316699999999969]},"properties":{"OBJECTID":86,"Date":"2020-02-21","Series":5,"Locality":"Ambohitromby","Fleas":10,"S__fonquerniei_Count":7,"X__cheopis_Count":3,"Rodents":19,"R__rattus_Count":16,"Fleas_on_R__rattus":10,"Flea_Index__Rodents_":0.52629999999999999,"Flea_Index__R__rattus_":0.625,"S__fonquerniei_Index__R__rattus_":0.4375,"X__cheopis_Index__R__rattus_":0.1875,"Seropositive_Count":0,"Source":"Rasoamalala et al. 2024 / Parany et al. 2025 - IPM Ankazobe longitudinal surveillance (data_plague_madagascar.xlsx)","Longitude":47.0944,"Latitude":-18.316700000000001}},{"type":"Feature","id":87,"geometry":{"type":"Point","coordinates":[47.094400000000064,-18.316699999999969]},"properties":{"OBJECTID":87,"Date":"2020-02-22","Series":5,"Locality":"Ambohitromby","Fleas":9,"S__fonquerniei_Count":9,"X__cheopis_Count":0,"Rodents":13,"R__rattus_Count":11,"Fleas_on_R__rattus":9,"Flea_Index__Rodents_":0.69230000000000003,"Flea_Index__R__rattus_":0.81820000000000004,"S__fonquerniei_Index__R__rattus_":0.81820000000000004,"X__cheopis_Index__R__rattus_":0,"Seropositive_Count":0,"Source":"Rasoamalala et al. 2024 / Parany et al. 2025 - IPM Ankazobe longitudinal surveillance (data_plague_madagascar.xlsx)","Longitude":47.0944,"Latitude":-18.316700000000001}},{"type":"Feature","id":88,"geometry":{"type":"Point","coordinates":[47.116700000000037,-18.316699999999969]},"properties":{"OBJECTID":88,"Date":"2020-02-24","Series":5,"Locality":"Ankazobe","Fleas":15,"S__fonquerniei_Count":6,"X__cheopis_Count":9,"Rodents":40,"R__rattus_Count":37,"Fleas_on_R__rattus":15,"Flea_Index__Rodents_":0.375,"Flea_Index__R__rattus_":0.40539999999999998,"S__fonquerniei_Index__R__rattus_":0.16220000000000001,"X__cheopis_Index__R__rattus_":0.2432,"Seropositive_Count":0,"Source":"Rasoamalala et al. 2024 / Parany et al. 2025 - IPM Ankazobe longitudinal surveillance (data_plague_madagascar.xlsx)","Longitude":47.116700000000002,"Latitude":-18.316700000000001}},{"type":"Feature","id":89,"geometry":{"type":"Point","coordinates":[47.116700000000037,-18.316699999999969]},"properties":{"OBJECTID":89,"Date":"2020-02-25","Series":5,"Locality":"Ankazobe","Fleas":3,"S__fonquerniei_Count":2,"X__cheopis_Count":1,"Rodents":19,"R__rattus_Count":17,"Fleas_on_R__rattus":3,"Flea_Index__Rodents_":0.15790000000000001,"Flea_Index__R__rattus_":0.17649999999999999,"S__fonquerniei_Index__R__rattus_":0.1176,"X__cheopis_Index__R__rattus_":0.058799999999999998,"Seropositive_Count":0,"Source":"Rasoamalala et al. 2024 / Parany et al. 2025 - IPM Ankazobe longitudinal surveillance (data_plague_madagascar.xlsx)","Longitude":47.116700000000002,"Latitude":-18.316700000000001}},{"type":"Feature","id":90,"geometry":{"type":"Point","coordinates":[47.116700000000037,-18.316699999999969]},"properties":{"OBJECTID":90,"Date":"2020-02-26","Series":5,"Locality":"Ankazobe","Fleas":6,"S__fonquerniei_Count":4,"X__cheopis_Count":2,"Rodents":15,"R__rattus_Count":15,"Fleas_on_R__rattus":6,"Flea_Index__Rodents_":0.40000000000000002,"Flea_Index__R__rattus_":0.40000000000000002,"S__fonquerniei_Index__R__rattus_":0.26669999999999999,"X__cheopis_Index__R__rattus_":0.1333,"Seropositive_Count":0,"Source":"Rasoamalala et al. 2024 / Parany et al. 2025 - IPM Ankazobe longitudinal surveillance (data_plague_madagascar.xlsx)","Longitude":47.116700000000002,"Latitude":-18.316700000000001}},{"type":"Feature","id":91,"geometry":{"type":"Point","coordinates":[47.120000000000061,-18.339999999999975]},"properties":{"OBJECTID":91,"Date":"2020-05-12","Series":6,"Locality":"Antakavana","Fleas":1,"S__fonquerniei_Count":1,"X__cheopis_Count":0,"Rodents":16,"R__rattus_Count":13,"Fleas_on_R__rattus":1,"Flea_Index__Rodents_":0.0625,"Flea_Index__R__rattus_":0.076899999999999996,"S__fonquerniei_Index__R__rattus_":0.076899999999999996,"X__cheopis_Index__R__rattus_":0,"Seropositive_Count":0,"Source":"Rasoamalala et al. 2024 / Parany et al. 2025 - IPM Ankazobe longitudinal surveillance (data_plague_madagascar.xlsx)","Longitude":47.119999999999997,"Latitude":-18.34}},{"type":"Feature","id":92,"geometry":{"type":"Point","coordinates":[47.120000000000061,-18.339999999999975]},"properties":{"OBJECTID":92,"Date":"2020-05-13","Series":6,"Locality":"Antakavana","Fleas":2,"S__fonquerniei_Count":2,"X__cheopis_Count":0,"Rodents":13,"R__rattus_Count":9,"Fleas_on_R__rattus":2,"Flea_Index__Rodents_":0.15379999999999999,"Flea_Index__R__rattus_":0.22220000000000001,"S__fonquerniei_Index__R__rattus_":0.22220000000000001,"X__cheopis_Index__R__rattus_":0,"Seropositive_Count":0,"Source":"Rasoamalala et al. 2024 / Parany et al. 2025 - IPM Ankazobe longitudinal surveillance (data_plague_madagascar.xlsx)","Longitude":47.119999999999997,"Latitude":-18.34}},{"type":"Feature","id":93,"geometry":{"type":"Point","coordinates":[47.120000000000061,-18.339999999999975]},"properties":{"OBJECTID":93,"Date":"2020-05-14","Series":6,"Locality":"Antakavana","Fleas":3,"S__fonquerniei_Count":2,"X__cheopis_Count":1,"Rodents":15,"R__rattus_Count":13,"Fleas_on_R__rattus":3,"Flea_Index__Rodents_":0.20000000000000001,"Flea_Index__R__rattus_":0.23080000000000001,"S__fonquerniei_Index__R__rattus_":0.15379999999999999,"X__cheopis_Index__R__rattus_":0.076899999999999996,"Seropositive_Count":0,"Source":"Rasoamalala et al. 2024 / Parany et al. 2025 - IPM Ankazobe longitudinal surveillance (data_plague_madagascar.xlsx)","Longitude":47.119999999999997,"Latitude":-18.34}},{"type":"Feature","id":94,"geometry":{"type":"Point","coordinates":[47.080000000000041,-18.299999999999955]},"properties":{"OBJECTID":94,"Date":"2020-05-16","Series":6,"Locality":"Kiangara","Fleas":6,"S__fonquerniei_Count":0,"X__cheopis_Count":6,"Rodents":48,"R__rattus_Count":44,"Fleas_on_R__rattus":6,"Flea_Index__Rodents_":0.125,"Flea_Index__R__rattus_":0.13639999999999999,"S__fonquerniei_Index__R__rattus_":0,"X__cheopis_Index__R__rattus_":0.13639999999999999,"Seropositive_Count":0,"Source":"Rasoamalala et al. 2024 / Parany et al. 2025 - IPM Ankazobe longitudinal surveillance (data_plague_madagascar.xlsx)","Longitude":47.079999999999998,"Latitude":-18.300000000000001}},{"type":"Feature","id":95,"geometry":{"type":"Point","coordinates":[47.080000000000041,-18.299999999999955]},"properties":{"OBJECTID":95,"Date":"2020-05-17","Series":6,"Locality":"Kiangara","Fleas":12,"S__fonquerniei_Count":0,"X__cheopis_Count":12,"Rodents":39,"R__rattus_Count":37,"Fleas_on_R__rattus":11,"Flea_Index__Rodents_":0.30769999999999997,"Flea_Index__R__rattus_":0.29730000000000001,"S__fonquerniei_Index__R__rattus_":0,"X__cheopis_Index__R__rattus_":0.32429999999999998,"Seropositive_Count":0,"Source":"Rasoamalala et al. 2024 / Parany et al. 2025 - IPM Ankazobe longitudinal surveillance (data_plague_madagascar.xlsx)","Longitude":47.079999999999998,"Latitude":-18.300000000000001}},{"type":"Feature","id":96,"geometry":{"type":"Point","coordinates":[47.080000000000041,-18.299999999999955]},"properties":{"OBJECTID":96,"Date":"2020-05-18","Series":6,"Locality":"Kiangara","Fleas":16,"S__fonquerniei_Count":1,"X__cheopis_Count":15,"Rodents":35,"R__rattus_Count":31,"Fleas_on_R__rattus":16,"Flea_Index__Rodents_":0.45710000000000001,"Flea_Index__R__rattus_":0.5161,"S__fonquerniei_Index__R__rattus_":0.032300000000000002,"X__cheopis_Index__R__rattus_":0.4839,"Seropositive_Count":0,"Source":"Rasoamalala et al. 2024 / Parany et al. 2025 - IPM Ankazobe longitudinal surveillance (data_plague_madagascar.xlsx)","Longitude":47.079999999999998,"Latitude":-18.300000000000001}},{"type":"Feature","id":97,"geometry":{"type":"Point","coordinates":[47.11000000000007,-18.289999999999964]},"properties":{"OBJECTID":97,"Date":"2020-05-20","Series":6,"Locality":"Ambolotarakely","Fleas":3,"S__fonquerniei_Count":1,"X__cheopis_Count":2,"Rodents":41,"R__rattus_Count":38,"Fleas_on_R__rattus":2,"Flea_Index__Rodents_":0.073200000000000001,"Flea_Index__R__rattus_":0.052600000000000001,"S__fonquerniei_Index__R__rattus_":0.0263,"X__cheopis_Index__R__rattus_":0.052600000000000001,"Seropositive_Count":0,"Source":"Rasoamalala et al. 2024 / Parany et al. 2025 - IPM Ankazobe longitudinal surveillance (data_plague_madagascar.xlsx)","Longitude":47.109999999999999,"Latitude":-18.289999999999999}},{"type":"Feature","id":98,"geometry":{"type":"Point","coordinates":[47.11000000000007,-18.289999999999964]},"properties":{"OBJECTID":98,"Date":"2020-05-21","Series":6,"Locality":"Ambolotarakely","Fleas":1,"S__fonquerniei_Count":0,"X__cheopis_Count":1,"Rodents":32,"R__rattus_Count":29,"Fleas_on_R__rattus":0,"Flea_Index__Rodents_":0.031199999999999999,"Flea_Index__R__rattus_":0,"S__fonquerniei_Index__R__rattus_":0,"X__cheopis_Index__R__rattus_":0.034500000000000003,"Seropositive_Count":0,"Source":"Rasoamalala et al. 2024 / Parany et al. 2025 - IPM Ankazobe longitudinal surveillance (data_plague_madagascar.xlsx)","Longitude":47.109999999999999,"Latitude":-18.289999999999999}},{"type":"Feature","id":99,"geometry":{"type":"Point","coordinates":[47.11000000000007,-18.289999999999964]},"properties":{"OBJECTID":99,"Date":"2020-05-22","Series":6,"Locality":"Ambolotarakely","Fleas":1,"S__fonquerniei_Count":1,"X__cheopis_Count":0,"Rodents":34,"R__rattus_Count":31,"Fleas_on_R__rattus":1,"Flea_Index__Rodents_":0.029399999999999999,"Flea_Index__R__rattus_":0.032300000000000002,"S__fonquerniei_Index__R__rattus_":0.032300000000000002,"X__cheopis_Index__R__rattus_":0,"Seropositive_Count":0,"Source":"Rasoamalala et al. 2024 / Parany et al. 2025 - IPM Ankazobe longitudinal surveillance (data_plague_madagascar.xlsx)","Longitude":47.109999999999999,"Latitude":-18.289999999999999}},{"type":"Feature","id":100,"geometry":{"type":"Point","coordinates":[47.105000000000075,-18.354999999999961]},"properties":{"OBJECTID":100,"Date":"2020-05-24","Series":6,"Locality":"Talata Angavo","Fleas":2,"S__fonquerniei_Count":1,"X__cheopis_Count":1,"Rodents":35,"R__rattus_Count":33,"Fleas_on_R__rattus":2,"Flea_Index__Rodents_":0.057099999999999998,"Flea_Index__R__rattus_":0.060600000000000001,"S__fonquerniei_Index__R__rattus_":0.030300000000000001,"X__cheopis_Index__R__rattus_":0.030300000000000001,"Seropositive_Count":1,"Source":"Rasoamalala et al. 2024 / Parany et al. 2025 - IPM Ankazobe longitudinal surveillance (data_plague_madagascar.xlsx)","Longitude":47.104999999999997,"Latitude":-18.355}},{"type":"Feature","id":101,"geometry":{"type":"Point","coordinates":[47.105000000000075,-18.354999999999961]},"properties":{"OBJECTID":101,"Date":"2020-05-25","Series":6,"Locality":"Talata Angavo","Fleas":1,"S__fonquerniei_Count":1,"X__cheopis_Count":0,"Rodents":28,"R__rattus_Count":27,"Fleas_on_R__rattus":1,"Flea_Index__Rodents_":0.035700000000000003,"Flea_Index__R__rattus_":0.036999999999999998,"S__fonquerniei_Index__R__rattus_":0.036999999999999998,"X__cheopis_Index__R__rattus_":0,"Seropositive_Count":0,"Source":"Rasoamalala et al. 2024 / Parany et al. 2025 - IPM Ankazobe longitudinal surveillance (data_plague_madagascar.xlsx)","Longitude":47.104999999999997,"Latitude":-18.355}},{"type":"Feature","id":102,"geometry":{"type":"Point","coordinates":[47.105000000000075,-18.354999999999961]},"properties":{"OBJECTID":102,"Date":"2020-05-26","Series":6,"Locality":"Talata Angavo","Fleas":9,"S__fonquerniei_Count":1,"X__cheopis_Count":8,"Rodents":30,"R__rattus_Count":29,"Fleas_on_R__rattus":9,"Flea_Index__Rodents_":0.29999999999999999,"Flea_Index__R__rattus_":0.31030000000000002,"S__fonquerniei_Index__R__rattus_":0.034500000000000003,"X__cheopis_Index__R__rattus_":0.27589999999999998,"Seropositive_Count":0,"Source":"Rasoamalala et al. 2024 / Parany et al. 2025 - IPM Ankazobe longitudinal surveillance (data_plague_madagascar.xlsx)","Longitude":47.104999999999997,"Latitude":-18.355}},{"type":"Feature","id":103,"geometry":{"type":"Point","coordinates":[47.094400000000064,-18.316699999999969]},"properties":{"OBJECTID":103,"Date":"2020-05-27","Series":6,"Locality":"Ambohitromby","Fleas":2,"S__fonquerniei_Count":2,"X__cheopis_Count":0,"Rodents":39,"R__rattus_Count":33,"Fleas_on_R__rattus":1,"Flea_Index__Rodents_":0.051299999999999998,"Flea_Index__R__rattus_":0.030300000000000001,"S__fonquerniei_Index__R__rattus_":0.060600000000000001,"X__cheopis_Index__R__rattus_":0,"Seropositive_Count":0,"Source":"Rasoamalala et al. 2024 / Parany et al. 2025 - IPM Ankazobe longitudinal surveillance (data_plague_madagascar.xlsx)","Longitude":47.0944,"Latitude":-18.316700000000001}},{"type":"Feature","id":104,"geometry":{"type":"Point","coordinates":[47.094400000000064,-18.316699999999969]},"properties":{"OBJECTID":104,"Date":"2020-05-28","Series":6,"Locality":"Ambohitromby","Fleas":3,"S__fonquerniei_Count":3,"X__cheopis_Count":0,"Rodents":30,"R__rattus_Count":30,"Fleas_on_R__rattus":3,"Flea_Index__Rodents_":0.10000000000000001,"Flea_Index__R__rattus_":0.10000000000000001,"S__fonquerniei_Index__R__rattus_":0.10000000000000001,"X__cheopis_Index__R__rattus_":0,"Seropositive_Count":0,"Source":"Rasoamalala et al. 2024 / Parany et al. 2025 - IPM Ankazobe longitudinal surveillance (data_plague_madagascar.xlsx)","Longitude":47.0944,"Latitude":-18.316700000000001}},{"type":"Feature","id":105,"geometry":{"type":"Point","coordinates":[47.094400000000064,-18.316699999999969]},"properties":{"OBJECTID":105,"Date":"2020-05-29","Series":6,"Locality":"Ambohitromby","Fleas":2,"S__fonquerniei_Count":2,"X__cheopis_Count":0,"Rodents":24,"R__rattus_Count":22,"Fleas_on_R__rattus":2,"Flea_Index__Rodents_":0.083299999999999999,"Flea_Index__R__rattus_":0.090899999999999995,"S__fonquerniei_Index__R__rattus_":0.090899999999999995,"X__cheopis_Index__R__rattus_":0,"Seropositive_Count":0,"Source":"Rasoamalala et al. 2024 / Parany et al. 2025 - IPM Ankazobe longitudinal surveillance (data_plague_madagascar.xlsx)","Longitude":47.0944,"Latitude":-18.316700000000001}},{"type":"Feature","id":106,"geometry":{"type":"Point","coordinates":[47.116700000000037,-18.316699999999969]},"properties":{"OBJECTID":106,"Date":"2020-06-01","Series":6,"Locality":"Ankazobe","Fleas":2,"S__fonquerniei_Count":2,"X__cheopis_Count":0,"Rodents":46,"R__rattus_Count":42,"Fleas_on_R__rattus":0,"Flea_Index__Rodents_":0.043499999999999997,"Flea_Index__R__rattus_":0,"S__fonquerniei_Index__R__rattus_":0.047600000000000003,"X__cheopis_Index__R__rattus_":0,"Seropositive_Count":0,"Source":"Rasoamalala et al. 2024 / Parany et al. 2025 - IPM Ankazobe longitudinal surveillance (data_plague_madagascar.xlsx)","Longitude":47.116700000000002,"Latitude":-18.316700000000001}},{"type":"Feature","id":107,"geometry":{"type":"Point","coordinates":[47.116700000000037,-18.316699999999969]},"properties":{"OBJECTID":107,"Date":"2020-06-02","Series":6,"Locality":"Ankazobe","Fleas":1,"S__fonquerniei_Count":0,"X__cheopis_Count":1,"Rodents":37,"R__rattus_Count":34,"Fleas_on_R__rattus":0,"Flea_Index__Rodents_":0.027,"Flea_Index__R__rattus_":0,"S__fonquerniei_Index__R__rattus_":0,"X__cheopis_Index__R__rattus_":0.029399999999999999,"Seropositive_Count":1,"Source":"Rasoamalala et al. 2024 / Parany et al. 2025 - IPM Ankazobe longitudinal surveillance (data_plague_madagascar.xlsx)","Longitude":47.116700000000002,"Latitude":-18.316700000000001}},{"type":"Feature","id":108,"geometry":{"type":"Point","coordinates":[47.116700000000037,-18.316699999999969]},"properties":{"OBJECTID":108,"Date":"2020-06-03","Series":6,"Locality":"Ankazobe","Fleas":2,"S__fonquerniei_Count":2,"X__cheopis_Count":0,"Rodents":38,"R__rattus_Count":34,"Fleas_on_R__rattus":2,"Flea_Index__Rodents_":0.052600000000000001,"Flea_Index__R__rattus_":0.058799999999999998,"S__fonquerniei_Index__R__rattus_":0.058799999999999998,"X__cheopis_Index__R__rattus_":0,"Seropositive_Count":1,"Source":"Rasoamalala et al. 2024 / Parany et al. 2025 - IPM Ankazobe longitudinal surveillance (data_plague_madagascar.xlsx)","Longitude":47.116700000000002,"Latitude":-18.316700000000001}}]}