{"type":"FeatureCollection","features":[{"type":"Feature","id":1,"geometry":{"type":"Point","coordinates":[46.048500000000047,-18.769499999999937]},"properties":{"OBJECTID":1,"Site":"Tsiroanomandidy","District":"Tsiroanomandidy","Plague_Status":"Active Focus","Study":"Rahelinirina et al. 2022","Year":"2018-2019","X__cheopis_Present":"True","S__fonquerniei_Present":"True","X__brasiliensis_Present":"False","Flea_Species":"Xenopsylla cheopis; Synopsyllus fonquerniei; Pulex irritans","Host_Species":"Rattus rattus; Mus musculus","Y__pestis_Detected":"True","Number_of_Mammals":0,"R__rattus_Count":0,"R__rattus_Percent":0,"Notes":"Active hyperendemic focus; 3 RDT-positive R. rattus; X. cheopis collected in light traps","Longitude":46.048499999999997,"Latitude":-18.769500000000001}},{"type":"Feature","id":2,"geometry":{"type":"Point","coordinates":[46.852200000000039,-19.839599999999962]},"properties":{"OBJECTID":2,"Site":"Betafo","District":"Betafo","Plague_Status":"Latent Focus","Study":"Rahelinirina et al. 2022","Year":"2018-2019","X__cheopis_Present":"True","S__fonquerniei_Present":"True","X__brasiliensis_Present":"False","Flea_Species":"Xenopsylla cheopis; Synopsyllus fonquerniei; Pulex irritans","Host_Species":"Rattus rattus; Mus musculus","Y__pestis_Detected":"True","Number_of_Mammals":0,"R__rattus_Count":0,"R__rattus_Percent":0,"Notes":"Latent focus; 3 RDT-positive R. rattus; high numbers of P. irritans in houses","Longitude":46.852200000000003,"Latitude":-19.839600000000001}},{"type":"Feature","id":3,"geometry":{"type":"Point","coordinates":[47.516600000000039,-18.909999999999968]},"properties":{"OBJECTID":3,"Site":"Antananarivo Renivohitra","District":"Antananarivo","Plague_Status":"Sporadic Urban","Study":"Rahelinirina et al. 2022","Year":"2018-2019","X__cheopis_Present":"True","S__fonquerniei_Present":"False","X__brasiliensis_Present":"False","Flea_Species":"Xenopsylla cheopis; Pulex irritans","Host_Species":"Rattus rattus; Rattus norvegicus; Mus musculus","Y__pestis_Detected":"False","Number_of_Mammals":0,"R__rattus_Count":0,"R__rattus_Percent":0,"Notes":"Highest flea index (8.8); urban setting; R. norvegicus dominant; 2017 pneumonic outbreak site","Longitude":47.516599999999997,"Latitude":-18.91}},{"type":"Feature","id":4,"geometry":{"type":"Point","coordinates":[49.395800000000065,-18.14429999999993]},"properties":{"OBJECTID":4,"Site":"Toamasina","District":"Toamasina","Plague_Status":"Historic Focus","Study":"Rahelinirina et al. 2022","Year":"2018-2019","X__cheopis_Present":"True","S__fonquerniei_Present":"False","X__brasiliensis_Present":"False","Flea_Species":"Xenopsylla cheopis","Host_Species":"Rattus rattus; Suncus murinus; Mus musculus","Y__pestis_Detected":"True","Number_of_Mammals":0,"R__rattus_Count":0,"R__rattus_Percent":0,"Notes":"13 RDT-positive animals (highest); S. murinus high antigen prevalence; original 1898 plague introduction port; no domestic fleas found (houses on stilts)","Longitude":49.395800000000001,"Latitude":-18.144300000000001}},{"type":"Feature","id":5,"geometry":{"type":"Point","coordinates":[46.126700000000028,-22.40119999999996]},"properties":{"OBJECTID":5,"Site":"Ihosy","District":"Ihosy","Plague_Status":"Non-Endemic","Study":"Rahelinirina et al. 2022","Year":"2018-2019","X__cheopis_Present":"True","S__fonquerniei_Present":"False","X__brasiliensis_Present":"False","Flea_Species":"Xenopsylla cheopis; Pulex irritans","Host_Species":"Rattus rattus; Mus musculus","Y__pestis_Detected":"False","Number_of_Mammals":0,"R__rattus_Count":0,"R__rattus_Percent":0,"Notes":"Non-endemic area; no plague detected; high P. irritans in houses; X. cheopis in light traps","Longitude":46.1267,"Latitude":-22.401199999999999}},{"type":"Feature","id":6,"geometry":{"type":"Point","coordinates":[49.050000000000068,-16.149999999999977]},"properties":{"OBJECTID":6,"Site":"Ampitambe","District":"Mandritsara","Plague_Status":"Endemic","Study":"Rakotobe Harimanana et al. 2025 (Sci Rep)","Year":"2021-2022","X__cheopis_Present":"True","S__fonquerniei_Present":"True","X__brasiliensis_Present":"True","Flea_Species":"Xenopsylla cheopis; Xenopsylla brasiliensis; Synopsyllus fonquerniei; Echidnophaga gallinacea; Ctenocephalides felis strongylus","Host_Species":"Rattus rattus; Mus musculus; Suncus murinus","Y__pestis_Detected":"False","Number_of_Mammals":0,"R__rattus_Count":0,"R__rattus_Percent":0,"Notes":"Surrounded by primary rainforest; all 3 plague vector flea species present; seasonal sampling","Longitude":49.049999999999997,"Latitude":-16.149999999999999}},{"type":"Feature","id":7,"geometry":{"type":"Point","coordinates":[49.07000000000005,-16.169999999999959]},"properties":{"OBJECTID":7,"Site":"Antsiatsiaka","District":"Mandritsara","Plague_Status":"Endemic","Study":"Rakotobe Harimanana et al. 2025 (Sci Rep)","Year":"2021-2022","X__cheopis_Present":"True","S__fonquerniei_Present":"True","X__brasiliensis_Present":"True","Flea_Species":"Xenopsylla cheopis; Xenopsylla brasiliensis; Synopsyllus fonquerniei; Echidnophaga gallinacea","Host_Species":"Rattus rattus; Mus musculus; Suncus murinus","Y__pestis_Detected":"False","Number_of_Mammals":0,"R__rattus_Count":0,"R__rattus_Percent":0,"Notes":"Near degraded rainforest; X. brasiliensis most abundant flea (47.8% overall)","Longitude":49.07,"Latitude":-16.170000000000002}},{"type":"Feature","id":8,"geometry":{"type":"Point","coordinates":[49.03000000000003,-16.199999999999932]},"properties":{"OBJECTID":8,"Site":"Antsiraka","District":"Mandritsara","Plague_Status":"Endemic","Study":"Rakotobe Harimanana et al. 2025 (Sci Rep)","Year":"2022","X__cheopis_Present":"True","S__fonquerniei_Present":"True","X__brasiliensis_Present":"True","Flea_Species":"Xenopsylla cheopis; Xenopsylla brasiliensis; Synopsyllus fonquerniei","Host_Species":"Rattus rattus","Y__pestis_Detected":"False","Number_of_Mammals":0,"R__rattus_Count":0,"R__rattus_Percent":0,"Notes":"Single sampling session due to access constraints","Longitude":49.030000000000001,"Latitude":-16.199999999999999}},{"type":"Feature","id":9,"geometry":{"type":"Point","coordinates":[49.010000000000048,-16.21999999999997]},"properties":{"OBJECTID":9,"Site":"Andranokelilalina","District":"Mandritsara","Plague_Status":"Endemic","Study":"Rakotobe Harimanana et al. 2025 (Sci Rep)","Year":"2022","X__cheopis_Present":"True","S__fonquerniei_Present":"False","X__brasiliensis_Present":"True","Flea_Species":"Xenopsylla cheopis; Xenopsylla brasiliensis","Host_Species":"Rattus rattus","Y__pestis_Detected":"False","Number_of_Mammals":0,"R__rattus_Count":0,"R__rattus_Percent":0,"Notes":"Near degraded forest; single sampling session","Longitude":49.009999999999998,"Latitude":-16.219999999999999}},{"type":"Feature","id":10,"geometry":{"type":"Point","coordinates":[48.816700000000026,-15.833299999999952]},"properties":{"OBJECTID":10,"Site":"Mandritsara villages (4 sites)","District":"Mandritsara","Plague_Status":"Endemic","Study":"Miarinjara et al. 2016 (Emerg Infect Dis)","Year":"2013-2014","X__cheopis_Present":"True","S__fonquerniei_Present":"True","X__brasiliensis_Present":"True","Flea_Species":"Synopsyllus fonquerniei; Xenopsylla brasiliensis; Xenopsylla cheopis; Echidnophaga gallinacea; Pulex irritans","Host_Species":"Rattus rattus; Mus musculus; Suncus murinus","Y__pestis_Detected":"False","Number_of_Mammals":0,"R__rattus_Count":0,"R__rattus_Percent":0,"Notes":"First discovery of X. brasiliensis in Madagascar; S. fonquerniei most abundant on-host flea; P. irritans 98% of indoor free-living fleas","Longitude":48.816699999999997,"Latitude":-15.833299999999999}},{"type":"Feature","id":11,"geometry":{"type":"Point","coordinates":[49.60000000000008,-15.149999999999977]},"properties":{"OBJECTID":11,"Site":"Makira NP - Sector 1","District":"Maroantsetra area","Plague_Status":"Suspected","Study":"Ramasindrazana et al. 2025 (PLoS NTD)","Year":"2020-2022","X__cheopis_Present":"True","S__fonquerniei_Present":"True","X__brasiliensis_Present":"False","Flea_Species":"Xenopsylla cheopis; Echidnophaga gallinacea; Synopsyllus fonquerniei","Host_Species":"Rattus rattus; Tenrec ecaudatus","Y__pestis_Detected":"False","Number_of_Mammals":0,"R__rattus_Count":0,"R__rattus_Percent":0,"Notes":"Intact lowland rainforest; S. fonquerniei only found on outdoor R. rattus","Longitude":49.600000000000001,"Latitude":-15.15}},{"type":"Feature","id":12,"geometry":{"type":"Point","coordinates":[49.35000000000008,-15.499999999999943]},"properties":{"OBJECTID":12,"Site":"Makira NP - Sector 3 (Andilambe area)","District":"Mandritsara/Maroantsetra area","Plague_Status":"Confirmed Circulation","Study":"Ramasindrazana et al. 2025 (PLoS NTD)","Year":"2020-2022","X__cheopis_Present":"True","S__fonquerniei_Present":"True","X__brasiliensis_Present":"True","Flea_Species":"Xenopsylla brasiliensis; Xenopsylla cheopis; Echidnophaga gallinacea; Synopsyllus fonquerniei; Ctenocephalides felis","Host_Species":"Rattus rattus; Mus musculus; Suncus murinus","Y__pestis_Detected":"True","Number_of_Mammals":0,"R__rattus_Count":0,"R__rattus_Percent":0,"Notes":"X. brasiliensis 66.5% of fleas; 1 seropositive R. rattus; 1 Y. pestis-positive C. felis flea; first plague confirmation in Makira region","Longitude":49.350000000000001,"Latitude":-15.5}},{"type":"Feature","id":13,"geometry":{"type":"Point","coordinates":[47.120000000000061,-18.319999999999936]},"properties":{"OBJECTID":13,"Site":"Ambohitromby (Ankazobe district)","District":"Ankazobe","Plague_Status":"Endemic","Study":"Parany et al. 2025 (Integr Zool); climatic study 2025 (BMC Infect Dis)","Year":"2018-2020","X__cheopis_Present":"True","S__fonquerniei_Present":"True","X__brasiliensis_Present":"False","Flea_Species":"Xenopsylla cheopis; Synopsyllus fonquerniei","Host_Species":"Rattus rattus; Rattus norvegicus; Mus musculus; Setifer setosus; Tenrec ecaudatus; Suncus murinus","Y__pestis_Detected":"False","Number_of_Mammals":0,"R__rattus_Count":0,"R__rattus_Percent":0,"Notes":"Longitudinal study 6 sessions; R. rattus 88% of captures; Setifer setosus and Tenrec ecaudatus also captured; highland endemic focus","Longitude":47.119999999999997,"Latitude":-18.32}},{"type":"Feature","id":14,"geometry":{"type":"Point","coordinates":[47.430000000000064,-21.379999999999939]},"properties":{"OBJECTID":14,"Site":"Antanambao-Vohidrotra (Ikongo district)","District":"Ikongo","Plague_Status":"Sylvatic Focus","Study":"Duplantier et al. 2001","Year":"1998","X__cheopis_Present":"False","S__fonquerniei_Present":"True","X__brasiliensis_Present":"False","Flea_Species":"Synopsyllus fonquerniei; Paractenopsyllus pauliani","Host_Species":"Rattus rattus; Tenrecidae (seropositive)","Y__pestis_Detected":"True","Number_of_Mammals":0,"R__rattus_Count":0,"R__rattus_Percent":0,"Notes":"Sylvatic focus; 4 seropositive Tenrecidae in forest; S. fonquerniei present; P. pauliani found on tenrec (first report as potential vector)","Longitude":47.43,"Latitude":-21.379999999999999}},{"type":"Feature","id":15,"geometry":{"type":"Point","coordinates":[47.450000000000045,-21.399999999999977]},"properties":{"OBJECTID":15,"Site":"Ambalagoavy (Ikongo district)","District":"Ikongo","Plague_Status":"Sylvatic Focus","Study":"Duplantier et al. 2001","Year":"1998","X__cheopis_Present":"True","S__fonquerniei_Present":"False","X__brasiliensis_Present":"False","Flea_Species":"Xenopsylla cheopis","Host_Species":"Rattus rattus; Suncus murinus","Y__pestis_Detected":"False","Number_of_Mammals":0,"R__rattus_Count":0,"R__rattus_Percent":0,"Notes":"Lower altitude site; X. cheopis only; S. murinus present","Longitude":47.450000000000003,"Latitude":-21.399999999999999}},{"type":"Feature","id":16,"geometry":{"type":"Point","coordinates":[46.317800000000034,-15.716699999999946]},"properties":{"OBJECTID":16,"Site":"Mahajanga","District":"Mahajanga","Plague_Status":"Historic Urban","Study":"Multiple (Chanteau 1998; Rahelinirina 2017)","Year":"1990s-2000s","X__cheopis_Present":"True","S__fonquerniei_Present":"False","X__brasiliensis_Present":"False","Flea_Species":"Xenopsylla cheopis","Host_Species":"Rattus rattus; Rattus norvegicus; Suncus murinus","Y__pestis_Detected":"True","Number_of_Mammals":0,"R__rattus_Count":0,"R__rattus_Percent":0,"Notes":"Port city; plague reintroduced 1990s via ship trade; S. murinus key reservoir; epidemics cycled then apparently disappeared","Longitude":46.317799999999998,"Latitude":-15.716699999999999}},{"type":"Feature","id":17,"geometry":{"type":"Point","coordinates":[49.03000000000003,-16.199999999999932]},"properties":{"OBJECTID":17,"Site":"Antsiraka","District":"Mandritsara","Plague_Status":"Endemic","Study":"Rakotobe Harimanana et al. 2025 (Sci Rep)","Year":"2022","X__cheopis_Present":"True","S__fonquerniei_Present":"True","X__brasiliensis_Present":"True","Flea_Species":"Xenopsylla cheopis; Xenopsylla brasiliensis; Synopsyllus fonquerniei","Host_Species":"Rattus rattus; Mus musculus; Suncus murinus","Y__pestis_Detected":"False","Number_of_Mammals":38,"R__rattus_Count":25,"R__rattus_Percent":65.800003099999998,"Notes":"Single session Sep-Oct 2022; commune Marotandrano; approx coords","Longitude":49.030000000000001,"Latitude":-16.199999999999999}},{"type":"Feature","id":18,"geometry":{"type":"Point","coordinates":[49.050000000000068,-16.149999999999977]},"properties":{"OBJECTID":18,"Site":"Ampitambe","District":"Mandritsara","Plague_Status":"Endemic","Study":"Rakotobe Harimanana et al. 2025 (Sci Rep)","Year":"2021-2022","X__cheopis_Present":"True","S__fonquerniei_Present":"True","X__brasiliensis_Present":"True","Flea_Species":"Xenopsylla cheopis; Xenopsylla brasiliensis; Synopsyllus fonquerniei; Echidnophaga gallinacea; Ctenocephalides felis strongylus","Host_Species":"Rattus rattus; Mus musculus; Suncus murinus","Y__pestis_Detected":"False","Number_of_Mammals":146,"R__rattus_Count":122,"R__rattus_Percent":83.599998499999998,"Notes":"3 sessions (Nov-Dec 2021, Jun 2022, Sep-Oct 2022); surrounded by primary rainforest; approx coords","Longitude":49.049999999999997,"Latitude":-16.149999999999999}},{"type":"Feature","id":19,"geometry":{"type":"Point","coordinates":[49.07000000000005,-16.169999999999959]},"properties":{"OBJECTID":19,"Site":"Antsiatsiaka","District":"Mandritsara","Plague_Status":"Endemic","Study":"Rakotobe Harimanana et al. 2025 (Sci Rep)","Year":"2021-2022","X__cheopis_Present":"True","S__fonquerniei_Present":"True","X__brasiliensis_Present":"True","Flea_Species":"Xenopsylla cheopis; Xenopsylla brasiliensis; Synopsyllus fonquerniei; Echidnophaga gallinacea","Host_Species":"Rattus rattus; Mus musculus; Suncus murinus","Y__pestis_Detected":"False","Number_of_Mammals":108,"R__rattus_Count":77,"R__rattus_Percent":71.300003099999998,"Notes":"3 sessions; near degraded rainforest; X. brasiliensis most abundant flea overall; approx coords","Longitude":49.07,"Latitude":-16.170000000000002}},{"type":"Feature","id":20,"geometry":{"type":"Point","coordinates":[49.010000000000048,-16.21999999999997]},"properties":{"OBJECTID":20,"Site":"Andranokelilalina","District":"Mandritsara","Plague_Status":"Endemic","Study":"Rakotobe Harimanana et al. 2025 (Sci Rep)","Year":"2022","X__cheopis_Present":"True","S__fonquerniei_Present":"False","X__brasiliensis_Present":"True","Flea_Species":"Xenopsylla cheopis; Xenopsylla brasiliensis","Host_Species":"Rattus rattus; Mus musculus","Y__pestis_Detected":"False","Number_of_Mammals":56,"R__rattus_Count":55,"R__rattus_Percent":98.199996900000002,"Notes":"Single session Sep-Oct 2022; near degraded forest; no S. murinus or S. fonquerniei; approx coords","Longitude":49.009999999999998,"Latitude":-16.219999999999999}}]}